<?xml version="1.0" encoding="UTF-8"?>
<gpx version="1.1" creator="Goelo Rides">
  <trk>
    <name>Groupe Blanc</name>
    <trkseg>
      <trkpt lat="48.6536" lon="-2.8353"/>
      <trkpt lat="48.6580" lon="-2.8280"/>
      <trkpt lat="48.6620" lon="-2.8200"/>
      <trkpt lat="48.6650" lon="-2.8100"/>
      <trkpt lat="48.6680" lon="-2.8250"/>
      <trkpt lat="48.6640" lon="-2.8400"/>
      <trkpt lat="48.6580" lon="-2.8480"/>
      <trkpt lat="48.6536" lon="-2.8353"/>
    </trkseg>
  </trk>
</gpx>
