<?xml version="1.0" encoding="UTF-8"?>
<gpx creator="StravaGPX" version="1.1" xmlns="http://www.topografix.com/GPX/1/1" xmlns:xsi="http://www.w3.org/2001/XMLSchema-instance" xsi:schemaLocation="http://www.topografix.com/GPX/1/1 http://www.topografix.com/GPX/1/1/gpx.xsd">
 <metadata>
  <name>🚴 GoëloRides #4 - Une nouvelle boucle sur les routes du Goëlo 💚</name>
  <author>
   <name>Goëlo Rides</name>
   <link href="https://www.strava.com/athletes/182746908"/>
  </author>
  <copyright author="OpenStreetMap contributors">
   <year>2020</year>
   <license>https://www.openstreetmap.org/copyright</license>
  </copyright>
  <link href="https://www.strava.com/routes/3515727756299487348"/>
 </metadata>
 <trk>
  <name>🚴 GoëloRides #4 - Une nouvelle boucle sur les routes du Goëlo 💚</name>
  <link href="https://www.strava.com/routes/3515727756299487348"/>
  <type>cycling</type>
  <trkseg>
   <trkpt lat="48.65386" lon="-2.8383200000000004">
    <ele>11.590000000000002</ele>
   </trkpt>
   <trkpt lat="48.654050000000005" lon="-2.83828">
    <ele>10.870000000000001</ele>
   </trkpt>
   <trkpt lat="48.65419000000001" lon="-2.8382">
    <ele>10.67</ele>
   </trkpt>
   <trkpt lat="48.6544" lon="-2.83794">
    <ele>10.100000000000001</ele>
   </trkpt>
   <trkpt lat="48.65449" lon="-2.8379200000000004">
    <ele>10.100000000000001</ele>
   </trkpt>
   <trkpt lat="48.65446000000001" lon="-2.8377700000000003">
    <ele>10.07</ele>
   </trkpt>
   <trkpt lat="48.654790000000006" lon="-2.8376400000000004">
    <ele>10.09</ele>
   </trkpt>
   <trkpt lat="48.655060000000006" lon="-2.83766">
    <ele>10.010000000000002</ele>
   </trkpt>
   <trkpt lat="48.655150000000006" lon="-2.8376200000000003">
    <ele>10.05</ele>
   </trkpt>
   <trkpt lat="48.65529" lon="-2.83766">
    <ele>9.99</ele>
   </trkpt>
   <trkpt lat="48.65538" lon="-2.8375700000000004">
    <ele>10.100000000000001</ele>
   </trkpt>
   <trkpt lat="48.65579000208009" lon="-2.8382449946886235">
    <ele>11.0</ele>
   </trkpt>
   <trkpt lat="48.656200000000005" lon="-2.8389200000000003">
    <ele>14.440000000000001</ele>
   </trkpt>
   <trkpt lat="48.656310000000005" lon="-2.8390700000000004">
    <ele>15.09</ele>
   </trkpt>
   <trkpt lat="48.656600000000005" lon="-2.83955">
    <ele>17.75</ele>
   </trkpt>
   <trkpt lat="48.6567" lon="-2.83976">
    <ele>18.950000000000003</ele>
   </trkpt>
   <trkpt lat="48.656760000000006" lon="-2.83978">
    <ele>18.950000000000003</ele>
   </trkpt>
   <trkpt lat="48.656780000000005" lon="-2.8397500000000004">
    <ele>19.000000000000004</ele>
   </trkpt>
   <trkpt lat="48.65681000000001" lon="-2.8397200000000002">
    <ele>19.000000000000004</ele>
   </trkpt>
   <trkpt lat="48.65686" lon="-2.83976">
    <ele>19.48</ele>
   </trkpt>
   <trkpt lat="48.656870000000005" lon="-2.83982">
    <ele>19.48</ele>
   </trkpt>
   <trkpt lat="48.65692000000001" lon="-2.83983">
    <ele>19.85</ele>
   </trkpt>
   <trkpt lat="48.65719000000001" lon="-2.84004">
    <ele>20.580000000000002</ele>
   </trkpt>
   <trkpt lat="48.65749" lon="-2.84038">
    <ele>21.92</ele>
   </trkpt>
   <trkpt lat="48.65767" lon="-2.8406800000000003">
    <ele>22.64</ele>
   </trkpt>
   <trkpt lat="48.65802" lon="-2.84141">
    <ele>24.380000000000003</ele>
   </trkpt>
   <trkpt lat="48.658210000000004" lon="-2.842">
    <ele>24.040000000000003</ele>
   </trkpt>
   <trkpt lat="48.658350000000006" lon="-2.8422600000000005">
    <ele>23.69</ele>
   </trkpt>
   <trkpt lat="48.65863" lon="-2.8425000000000002">
    <ele>23.19</ele>
   </trkpt>
   <trkpt lat="48.65908" lon="-2.84281">
    <ele>23.41</ele>
   </trkpt>
   <trkpt lat="48.65963000000001" lon="-2.84322">
    <ele>23.470000000000002</ele>
   </trkpt>
   <trkpt lat="48.660090000000004" lon="-2.84371">
    <ele>24.220000000000002</ele>
   </trkpt>
   <trkpt lat="48.660340000000005" lon="-2.84396">
    <ele>26.060000000000002</ele>
   </trkpt>
   <trkpt lat="48.661010000000005" lon="-2.84439">
    <ele>27.31</ele>
   </trkpt>
   <trkpt lat="48.66113000000001" lon="-2.8444100000000003">
    <ele>27.3</ele>
   </trkpt>
   <trkpt lat="48.661280000000005" lon="-2.84439">
    <ele>27.19</ele>
   </trkpt>
   <trkpt lat="48.661440000000006" lon="-2.84439">
    <ele>27.03</ele>
   </trkpt>
   <trkpt lat="48.66156" lon="-2.84444">
    <ele>27.12</ele>
   </trkpt>
   <trkpt lat="48.66176" lon="-2.8446200000000004">
    <ele>27.55</ele>
   </trkpt>
   <trkpt lat="48.66225000000001" lon="-2.84539">
    <ele>31.830000000000002</ele>
   </trkpt>
   <trkpt lat="48.662470000000006" lon="-2.84579">
    <ele>34.120000000000005</ele>
   </trkpt>
   <trkpt lat="48.662580000000005" lon="-2.84601">
    <ele>34.97</ele>
   </trkpt>
   <trkpt lat="48.662670000000006" lon="-2.8463000000000003">
    <ele>38.92</ele>
   </trkpt>
   <trkpt lat="48.662690000000005" lon="-2.84647">
    <ele>38.92</ele>
   </trkpt>
   <trkpt lat="48.662690000000005" lon="-2.8466400000000003">
    <ele>39.46</ele>
   </trkpt>
   <trkpt lat="48.662880003480986" lon="-2.847534996693868">
    <ele>40.71</ele>
   </trkpt>
   <trkpt lat="48.663070000000005" lon="-2.84843">
    <ele>43.370000000000005</ele>
   </trkpt>
   <trkpt lat="48.663360000000004" lon="-2.8492800000000003">
    <ele>47.540000000000006</ele>
   </trkpt>
   <trkpt lat="48.66342" lon="-2.84952">
    <ele>47.52</ele>
   </trkpt>
   <trkpt lat="48.66366000000001" lon="-2.85083">
    <ele>48.92</ele>
   </trkpt>
   <trkpt lat="48.663835001921186" lon="-2.8515049974609985">
    <ele>46.230000000000004</ele>
   </trkpt>
   <trkpt lat="48.664010000000005" lon="-2.85218">
    <ele>43.620000000000005</ele>
   </trkpt>
   <trkpt lat="48.66416" lon="-2.85246">
    <ele>42.370000000000005</ele>
   </trkpt>
   <trkpt lat="48.66434" lon="-2.85273">
    <ele>38.91</ele>
   </trkpt>
   <trkpt lat="48.66452" lon="-2.8529000000000004">
    <ele>37.540000000000006</ele>
   </trkpt>
   <trkpt lat="48.664750000000005" lon="-2.85304">
    <ele>34.690000000000005</ele>
   </trkpt>
   <trkpt lat="48.665040000000005" lon="-2.85313">
    <ele>30.840000000000003</ele>
   </trkpt>
   <trkpt lat="48.66526" lon="-2.8532800000000003">
    <ele>27.12</ele>
   </trkpt>
   <trkpt lat="48.665960003156314" lon="-2.8541249883429365">
    <ele>13.82</ele>
   </trkpt>
   <trkpt lat="48.66666000000001" lon="-2.8549700000000002">
    <ele>9.4</ele>
   </trkpt>
   <trkpt lat="48.666740000000004" lon="-2.8550500000000003">
    <ele>9.510000000000002</ele>
   </trkpt>
   <trkpt lat="48.66671" lon="-2.85522">
    <ele>9.510000000000002</ele>
   </trkpt>
   <trkpt lat="48.666475002754915" lon="-2.8560250039234427">
    <ele>11.06</ele>
   </trkpt>
   <trkpt lat="48.66624" lon="-2.8568300000000004">
    <ele>14.540000000000001</ele>
   </trkpt>
   <trkpt lat="48.66622" lon="-2.85718">
    <ele>16.09</ele>
   </trkpt>
   <trkpt lat="48.66628000000001" lon="-2.85767">
    <ele>18.97</ele>
   </trkpt>
   <trkpt lat="48.666270000000004" lon="-2.85786">
    <ele>19.64</ele>
   </trkpt>
   <trkpt lat="48.66610000000001" lon="-2.8588000000000005">
    <ele>21.560000000000002</ele>
   </trkpt>
   <trkpt lat="48.66592000000001" lon="-2.85962">
    <ele>21.380000000000003</ele>
   </trkpt>
   <trkpt lat="48.66586" lon="-2.86004">
    <ele>22.35</ele>
   </trkpt>
   <trkpt lat="48.66588" lon="-2.8602200000000004">
    <ele>22.35</ele>
   </trkpt>
   <trkpt lat="48.66615" lon="-2.8609500000000003">
    <ele>23.05</ele>
   </trkpt>
   <trkpt lat="48.6662" lon="-2.861">
    <ele>23.57</ele>
   </trkpt>
   <trkpt lat="48.666410000000006" lon="-2.86113">
    <ele>24.82</ele>
   </trkpt>
   <trkpt lat="48.66657000000001" lon="-2.86127">
    <ele>25.85</ele>
   </trkpt>
   <trkpt lat="48.667180000082546" lon="-2.8611000020696475">
    <ele>29.44</ele>
   </trkpt>
   <trkpt lat="48.667790000000004" lon="-2.86093">
    <ele>33.120000000000005</ele>
   </trkpt>
   <trkpt lat="48.66805" lon="-2.8608300000000004">
    <ele>33.830000000000005</ele>
   </trkpt>
   <trkpt lat="48.66808" lon="-2.8609000000000004">
    <ele>34.010000000000005</ele>
   </trkpt>
   <trkpt lat="48.668600000000005" lon="-2.86145">
    <ele>33.99</ele>
   </trkpt>
   <trkpt lat="48.669180000000004" lon="-2.86201">
    <ele>34.59</ele>
   </trkpt>
   <trkpt lat="48.669760000000004" lon="-2.86255">
    <ele>34.28</ele>
   </trkpt>
   <trkpt lat="48.670080000000006" lon="-2.86281">
    <ele>33.72</ele>
   </trkpt>
   <trkpt lat="48.670775001184" lon="-2.8633399926655176">
    <ele>33.370000000000005</ele>
   </trkpt>
   <trkpt lat="48.67147000000001" lon="-2.8638700000000004">
    <ele>30.1</ele>
   </trkpt>
   <trkpt lat="48.67077500124725" lon="-2.863339992713757">
    <ele>33.550000000000004</ele>
   </trkpt>
   <trkpt lat="48.670080000000006" lon="-2.86281">
    <ele>33.72</ele>
   </trkpt>
   <trkpt lat="48.66957000000001" lon="-2.8623700000000003">
    <ele>34.730000000000004</ele>
   </trkpt>
   <trkpt lat="48.66901500391795" lon="-2.86332501056811">
    <ele>34.75</ele>
   </trkpt>
   <trkpt lat="48.66846" lon="-2.8642800000000004">
    <ele>35.6</ele>
   </trkpt>
   <trkpt lat="48.66912000000001" lon="-2.86513">
    <ele>37.39</ele>
   </trkpt>
   <trkpt lat="48.66926" lon="-2.86539">
    <ele>38.57</ele>
   </trkpt>
   <trkpt lat="48.66959000348964" lon="-2.8662999937811495">
    <ele>44.57000000000001</ele>
   </trkpt>
   <trkpt lat="48.669920000000005" lon="-2.86721">
    <ele>49.67</ele>
   </trkpt>
   <trkpt lat="48.67002" lon="-2.86762">
    <ele>51.06</ele>
   </trkpt>
   <trkpt lat="48.67013000000001" lon="-2.86831">
    <ele>52.89000000000001</ele>
   </trkpt>
   <trkpt lat="48.67013000000001" lon="-2.86885">
    <ele>53.52</ele>
   </trkpt>
   <trkpt lat="48.66971000061071" lon="-2.869260003531364">
    <ele>54.71</ele>
   </trkpt>
   <trkpt lat="48.669290000000004" lon="-2.86967">
    <ele>56.11000000000001</ele>
   </trkpt>
   <trkpt lat="48.66911" lon="-2.86981">
    <ele>57.46</ele>
   </trkpt>
   <trkpt lat="48.66897" lon="-2.8698900000000003">
    <ele>57.46</ele>
   </trkpt>
   <trkpt lat="48.668800000000005" lon="-2.86994">
    <ele>58.72</ele>
   </trkpt>
   <trkpt lat="48.66816500029297" lon="-2.870080001718277">
    <ele>61.03000000000001</ele>
   </trkpt>
   <trkpt lat="48.667530000000006" lon="-2.87022">
    <ele>61.970000000000006</ele>
   </trkpt>
   <trkpt lat="48.66691" lon="-2.87042">
    <ele>61.81</ele>
   </trkpt>
   <trkpt lat="48.66667" lon="-2.87054">
    <ele>62.040000000000006</ele>
   </trkpt>
   <trkpt lat="48.6662600003589" lon="-2.870875002829032">
    <ele>62.24</ele>
   </trkpt>
   <trkpt lat="48.665850000000006" lon="-2.87121">
    <ele>63.12000000000001</ele>
   </trkpt>
   <trkpt lat="48.665530000000004" lon="-2.87135">
    <ele>63.85</ele>
   </trkpt>
   <trkpt lat="48.66499500010687" lon="-2.8715050016445796">
    <ele>65.66000000000001</ele>
   </trkpt>
   <trkpt lat="48.664460000000005" lon="-2.8716600000000003">
    <ele>67.85000000000001</ele>
   </trkpt>
   <trkpt lat="48.66422000000001" lon="-2.87123">
    <ele>67.34</ele>
   </trkpt>
   <trkpt lat="48.66415000000001" lon="-2.87115">
    <ele>66.30000000000001</ele>
   </trkpt>
   <trkpt lat="48.664010000000005" lon="-2.87103">
    <ele>66.30000000000001</ele>
   </trkpt>
   <trkpt lat="48.66396" lon="-2.87117">
    <ele>66.83</ele>
   </trkpt>
   <trkpt lat="48.66382" lon="-2.87183">
    <ele>69.39</ele>
   </trkpt>
   <trkpt lat="48.663270000000004" lon="-2.87209">
    <ele>69.70000000000002</ele>
   </trkpt>
   <trkpt lat="48.66319000000001" lon="-2.87216">
    <ele>69.74000000000001</ele>
   </trkpt>
   <trkpt lat="48.66313" lon="-2.8721500000000004">
    <ele>69.74000000000001</ele>
   </trkpt>
   <trkpt lat="48.663470000000004" lon="-2.8726000000000003">
    <ele>70.12</ele>
   </trkpt>
   <trkpt lat="48.663590000000006" lon="-2.87285">
    <ele>70.28</ele>
   </trkpt>
   <trkpt lat="48.66366000000001" lon="-2.87318">
    <ele>70.37</ele>
   </trkpt>
   <trkpt lat="48.663650000000004" lon="-2.87365">
    <ele>70.47</ele>
   </trkpt>
   <trkpt lat="48.66358667567249" lon="-2.8746700025512846">
    <ele>70.37</ele>
   </trkpt>
   <trkpt lat="48.66352334233991" lon="-2.8756900025392613">
    <ele>70.8</ele>
   </trkpt>
   <trkpt lat="48.66346" lon="-2.87671">
    <ele>71.28000000000002</ele>
   </trkpt>
   <trkpt lat="48.66338000553909" lon="-2.877840001609408">
    <ele>72.34</ele>
   </trkpt>
   <trkpt lat="48.66330000000001" lon="-2.8789700000000003">
    <ele>73.18</ele>
   </trkpt>
   <trkpt lat="48.66321000000001" lon="-2.8797800000000002">
    <ele>71.85000000000001</ele>
   </trkpt>
   <trkpt lat="48.66301000000001" lon="-2.88059">
    <ele>71.08</ele>
   </trkpt>
   <trkpt lat="48.66273500351276" lon="-2.8814950050422623">
    <ele>71.07000000000001</ele>
   </trkpt>
   <trkpt lat="48.66246" lon="-2.8824">
    <ele>72.34</ele>
   </trkpt>
   <trkpt lat="48.66241" lon="-2.88267">
    <ele>72.29</ele>
   </trkpt>
   <trkpt lat="48.662380000000006" lon="-2.8829300000000004">
    <ele>72.2</ele>
   </trkpt>
   <trkpt lat="48.662380000000006" lon="-2.88315">
    <ele>71.78000000000002</ele>
   </trkpt>
   <trkpt lat="48.66236000000001" lon="-2.8832500000000003">
    <ele>71.78000000000002</ele>
   </trkpt>
   <trkpt lat="48.66276667375587" lon="-2.8841566519779165">
    <ele>70.12</ele>
   </trkpt>
   <trkpt lat="48.66317334039672" lon="-2.885063318586777">
    <ele>68.47</ele>
   </trkpt>
   <trkpt lat="48.66358" lon="-2.8859700000000004">
    <ele>67.73</ele>
   </trkpt>
   <trkpt lat="48.66358" lon="-2.8859800000000004">
    <ele>67.73</ele>
   </trkpt>
   <trkpt lat="48.66369" lon="-2.88599">
    <ele>67.76</ele>
   </trkpt>
   <trkpt lat="48.663810000000005" lon="-2.88608">
    <ele>67.75</ele>
   </trkpt>
   <trkpt lat="48.664010000000005" lon="-2.8860900000000003">
    <ele>67.77000000000001</ele>
   </trkpt>
   <trkpt lat="48.66475500017999" lon="-2.8863099967391865">
    <ele>68.54</ele>
   </trkpt>
   <trkpt lat="48.6655" lon="-2.88653">
    <ele>69.20000000000002</ele>
   </trkpt>
   <trkpt lat="48.665980000000005" lon="-2.88661">
    <ele>69.97</ele>
   </trkpt>
   <trkpt lat="48.66649" lon="-2.88667">
    <ele>70.48</ele>
   </trkpt>
   <trkpt lat="48.66698500007589" lon="-2.88667">
    <ele>70.45000000000002</ele>
   </trkpt>
   <trkpt lat="48.667480000000005" lon="-2.88667">
    <ele>69.36</ele>
   </trkpt>
   <trkpt lat="48.66769000000001" lon="-2.88674">
    <ele>69.36</ele>
   </trkpt>
   <trkpt lat="48.66781" lon="-2.88687">
    <ele>69.25</ele>
   </trkpt>
   <trkpt lat="48.668400000000005" lon="-2.88755">
    <ele>67.95</ele>
   </trkpt>
   <trkpt lat="48.66903000000001" lon="-2.8879">
    <ele>66.47</ele>
   </trkpt>
   <trkpt lat="48.66928" lon="-2.88823">
    <ele>66.19</ele>
   </trkpt>
   <trkpt lat="48.66967" lon="-2.8888100000000003">
    <ele>66.43</ele>
   </trkpt>
   <trkpt lat="48.670010000000005" lon="-2.88925">
    <ele>65.54</ele>
   </trkpt>
   <trkpt lat="48.67005" lon="-2.8893400000000002">
    <ele>65.36</ele>
   </trkpt>
   <trkpt lat="48.67014" lon="-2.88973">
    <ele>65.09</ele>
   </trkpt>
   <trkpt lat="48.67018" lon="-2.89008">
    <ele>64.97</ele>
   </trkpt>
   <trkpt lat="48.67027" lon="-2.89007">
    <ele>64.92</ele>
   </trkpt>
   <trkpt lat="48.67033000000001" lon="-2.8900900000000003">
    <ele>64.91000000000001</ele>
   </trkpt>
   <trkpt lat="48.67101500177757" lon="-2.8907299913039997">
    <ele>64.26</ele>
   </trkpt>
   <trkpt lat="48.6717" lon="-2.89137">
    <ele>59.480000000000004</ele>
   </trkpt>
   <trkpt lat="48.67234500169733" lon="-2.891999991915236">
    <ele>58.150000000000006</ele>
   </trkpt>
   <trkpt lat="48.672990000000006" lon="-2.89263">
    <ele>60.39000000000001</ele>
   </trkpt>
   <trkpt lat="48.67324000000001" lon="-2.89284">
    <ele>61.050000000000004</ele>
   </trkpt>
   <trkpt lat="48.67344000000001" lon="-2.8929300000000002">
    <ele>62.7</ele>
   </trkpt>
   <trkpt lat="48.673550000000006" lon="-2.8929400000000003">
    <ele>63.14</ele>
   </trkpt>
   <trkpt lat="48.67374" lon="-2.89291">
    <ele>64.39999999999999</ele>
   </trkpt>
   <trkpt lat="48.67394" lon="-2.89278">
    <ele>65.27000000000001</ele>
   </trkpt>
   <trkpt lat="48.67409000000001" lon="-2.89259">
    <ele>65.87</ele>
   </trkpt>
   <trkpt lat="48.674150000000004" lon="-2.89243">
    <ele>66.11</ele>
   </trkpt>
   <trkpt lat="48.674200000000006" lon="-2.89223">
    <ele>66.03</ele>
   </trkpt>
   <trkpt lat="48.674220000000005" lon="-2.8919900000000003">
    <ele>65.38000000000001</ele>
   </trkpt>
   <trkpt lat="48.67421" lon="-2.89168">
    <ele>64.07000000000001</ele>
   </trkpt>
   <trkpt lat="48.67405" lon="-2.8906300000000003">
    <ele>56.300000000000004</ele>
   </trkpt>
   <trkpt lat="48.67405" lon="-2.8903600000000003">
    <ele>55.24</ele>
   </trkpt>
   <trkpt lat="48.674130000000005" lon="-2.88999">
    <ele>51.42000000000001</ele>
   </trkpt>
   <trkpt lat="48.67443" lon="-2.8891600000000004">
    <ele>45.300000000000004</ele>
   </trkpt>
   <trkpt lat="48.674510000000005" lon="-2.8888900000000004">
    <ele>44.620000000000005</ele>
   </trkpt>
   <trkpt lat="48.674710000000005" lon="-2.88837">
    <ele>39.89</ele>
   </trkpt>
   <trkpt lat="48.675290000000004" lon="-2.88769">
    <ele>29.93</ele>
   </trkpt>
   <trkpt lat="48.67537" lon="-2.88755">
    <ele>26.98</ele>
   </trkpt>
   <trkpt lat="48.675540000000005" lon="-2.88687">
    <ele>19.12</ele>
   </trkpt>
   <trkpt lat="48.67569" lon="-2.8860500000000004">
    <ele>14.31</ele>
   </trkpt>
   <trkpt lat="48.675740000000005" lon="-2.88586">
    <ele>12.34</ele>
   </trkpt>
   <trkpt lat="48.67595000000001" lon="-2.8855700000000004">
    <ele>10.08</ele>
   </trkpt>
   <trkpt lat="48.67580500234455" lon="-2.884834997918715">
    <ele>8.24</ele>
   </trkpt>
   <trkpt lat="48.67566" lon="-2.8841">
    <ele>8.24</ele>
   </trkpt>
   <trkpt lat="48.675740000000005" lon="-2.8839">
    <ele>7.640000000000001</ele>
   </trkpt>
   <trkpt lat="48.67624000000001" lon="-2.88429">
    <ele>7.320000000000001</ele>
   </trkpt>
   <trkpt lat="48.67649" lon="-2.88443">
    <ele>7.19</ele>
   </trkpt>
   <trkpt lat="48.67698000000001" lon="-2.8846100000000003">
    <ele>7.55</ele>
   </trkpt>
   <trkpt lat="48.67723" lon="-2.8846800000000004">
    <ele>8.09</ele>
   </trkpt>
   <trkpt lat="48.677250003946185" lon="-2.885634999594828">
    <ele>9.61</ele>
   </trkpt>
   <trkpt lat="48.67727000000001" lon="-2.8865900000000004">
    <ele>10.23</ele>
   </trkpt>
   <trkpt lat="48.67727000000001" lon="-2.88687">
    <ele>10.23</ele>
   </trkpt>
   <trkpt lat="48.67725" lon="-2.88714">
    <ele>10.270000000000001</ele>
   </trkpt>
   <trkpt lat="48.677040000000005" lon="-2.88802">
    <ele>10.280000000000001</ele>
   </trkpt>
   <trkpt lat="48.676950000000005" lon="-2.88859">
    <ele>10.540000000000001</ele>
   </trkpt>
   <trkpt lat="48.6769" lon="-2.8890900000000004">
    <ele>10.76</ele>
   </trkpt>
   <trkpt lat="48.676840000000006" lon="-2.88945">
    <ele>10.88</ele>
   </trkpt>
   <trkpt lat="48.676770000000005" lon="-2.88965">
    <ele>10.88</ele>
   </trkpt>
   <trkpt lat="48.676700000000004" lon="-2.8900500000000005">
    <ele>11.28</ele>
   </trkpt>
   <trkpt lat="48.67663500217444" lon="-2.890765001339043">
    <ele>11.420000000000002</ele>
   </trkpt>
   <trkpt lat="48.676570000000005" lon="-2.89148">
    <ele>11.770000000000001</ele>
   </trkpt>
   <trkpt lat="48.67658" lon="-2.89168">
    <ele>11.860000000000001</ele>
   </trkpt>
   <trkpt lat="48.676640000000006" lon="-2.89189">
    <ele>11.860000000000001</ele>
   </trkpt>
   <trkpt lat="48.67674" lon="-2.89203">
    <ele>12.14</ele>
   </trkpt>
   <trkpt lat="48.67707" lon="-2.89225">
    <ele>12.38</ele>
   </trkpt>
   <trkpt lat="48.67719" lon="-2.89237">
    <ele>12.450000000000001</ele>
   </trkpt>
   <trkpt lat="48.677330000000005" lon="-2.8927">
    <ele>13.44</ele>
   </trkpt>
   <trkpt lat="48.67741" lon="-2.8930100000000003">
    <ele>14.180000000000001</ele>
   </trkpt>
   <trkpt lat="48.677400000000006" lon="-2.8933000000000004">
    <ele>14.33</ele>
   </trkpt>
   <trkpt lat="48.67707" lon="-2.89439">
    <ele>15.330000000000002</ele>
   </trkpt>
   <trkpt lat="48.67679500145913" lon="-2.8949700031590133">
    <ele>15.770000000000003</ele>
   </trkpt>
   <trkpt lat="48.676520000000004" lon="-2.89555">
    <ele>16.240000000000002</ele>
   </trkpt>
   <trkpt lat="48.67643" lon="-2.89589">
    <ele>16.25</ele>
   </trkpt>
   <trkpt lat="48.676280000000006" lon="-2.8967">
    <ele>16.16</ele>
   </trkpt>
   <trkpt lat="48.676210000000005" lon="-2.8969600000000004">
    <ele>16.09</ele>
   </trkpt>
   <trkpt lat="48.67606000000001" lon="-2.8972100000000003">
    <ele>16.099999999999998</ele>
   </trkpt>
   <trkpt lat="48.675920000000005" lon="-2.89738">
    <ele>16.37</ele>
   </trkpt>
   <trkpt lat="48.67542" lon="-2.8978400000000004">
    <ele>17.28</ele>
   </trkpt>
   <trkpt lat="48.67535" lon="-2.8978800000000002">
    <ele>17.640000000000004</ele>
   </trkpt>
   <trkpt lat="48.674725000065926" lon="-2.898080002515419">
    <ele>19.930000000000003</ele>
   </trkpt>
   <trkpt lat="48.6741" lon="-2.89828">
    <ele>20.91</ele>
   </trkpt>
   <trkpt lat="48.673880000000004" lon="-2.8984">
    <ele>21.310000000000002</ele>
   </trkpt>
   <trkpt lat="48.67343" lon="-2.89881">
    <ele>22.36</ele>
   </trkpt>
   <trkpt lat="48.67289" lon="-2.8990400000000003">
    <ele>24.310000000000002</ele>
   </trkpt>
   <trkpt lat="48.67249" lon="-2.8992000000000004">
    <ele>26.6</ele>
   </trkpt>
   <trkpt lat="48.6724" lon="-2.89929">
    <ele>26.6</ele>
   </trkpt>
   <trkpt lat="48.672360000000005" lon="-2.89943">
    <ele>26.6</ele>
   </trkpt>
   <trkpt lat="48.67237" lon="-2.89961">
    <ele>26.6</ele>
   </trkpt>
   <trkpt lat="48.67266" lon="-2.9004900000000005">
    <ele>28.940000000000005</ele>
   </trkpt>
   <trkpt lat="48.672720000000005" lon="-2.90084">
    <ele>29.150000000000002</ele>
   </trkpt>
   <trkpt lat="48.672765002265585" lon="-2.901564999206354">
    <ele>30.230000000000004</ele>
   </trkpt>
   <trkpt lat="48.672810000000005" lon="-2.9022900000000003">
    <ele>32.24</ele>
   </trkpt>
   <trkpt lat="48.67282" lon="-2.9027900000000004">
    <ele>33.940000000000005</ele>
   </trkpt>
   <trkpt lat="48.67269" lon="-2.90361">
    <ele>36.97</ele>
   </trkpt>
   <trkpt lat="48.67251" lon="-2.9043">
    <ele>37.37</ele>
   </trkpt>
   <trkpt lat="48.67244" lon="-2.9047">
    <ele>37.18000000000001</ele>
   </trkpt>
   <trkpt lat="48.67237" lon="-2.90526">
    <ele>37.21</ele>
   </trkpt>
   <trkpt lat="48.67226" lon="-2.90592">
    <ele>37.44</ele>
   </trkpt>
   <trkpt lat="48.672160000000005" lon="-2.90674">
    <ele>39.28</ele>
   </trkpt>
   <trkpt lat="48.67216000227466" lon="-2.907464999558595">
    <ele>40.82</ele>
   </trkpt>
   <trkpt lat="48.672160000000005" lon="-2.9081900000000003">
    <ele>44.93000000000001</ele>
   </trkpt>
   <trkpt lat="48.67208" lon="-2.90905">
    <ele>46.06</ele>
   </trkpt>
   <trkpt lat="48.672050000000006" lon="-2.90985">
    <ele>46.11000000000001</ele>
   </trkpt>
   <trkpt lat="48.67201000000001" lon="-2.91012">
    <ele>46.05</ele>
   </trkpt>
   <trkpt lat="48.67195" lon="-2.9103600000000003">
    <ele>45.8</ele>
   </trkpt>
   <trkpt lat="48.67171500296476" lon="-2.9111900039293412">
    <ele>45.81</ele>
   </trkpt>
   <trkpt lat="48.67148" lon="-2.91202">
    <ele>45.51</ele>
   </trkpt>
   <trkpt lat="48.671440000000004" lon="-2.91222">
    <ele>45.51</ele>
   </trkpt>
   <trkpt lat="48.67139" lon="-2.9126900000000004">
    <ele>45.480000000000004</ele>
   </trkpt>
   <trkpt lat="48.67137" lon="-2.9139800000000005">
    <ele>46.1</ele>
   </trkpt>
   <trkpt lat="48.671350000000004" lon="-2.91508">
    <ele>47.67</ele>
   </trkpt>
   <trkpt lat="48.67120500222451" lon="-2.9157950019976617">
    <ele>48.88</ele>
   </trkpt>
   <trkpt lat="48.671060000000004" lon="-2.91651">
    <ele>50.72</ele>
   </trkpt>
   <trkpt lat="48.67098000000001" lon="-2.91678">
    <ele>51.53000000000001</ele>
   </trkpt>
   <trkpt lat="48.67058" lon="-2.91758">
    <ele>52.82000000000001</ele>
   </trkpt>
   <trkpt lat="48.670440000000006" lon="-2.91799">
    <ele>52.86000000000001</ele>
   </trkpt>
   <trkpt lat="48.670370000000005" lon="-2.91853">
    <ele>52.84</ele>
   </trkpt>
   <trkpt lat="48.67031500286261" lon="-2.919340000541007">
    <ele>52.93000000000001</ele>
   </trkpt>
   <trkpt lat="48.670260000000006" lon="-2.92015">
    <ele>52.78000000000001</ele>
   </trkpt>
   <trkpt lat="48.670230000000004" lon="-2.9203">
    <ele>52.77</ele>
   </trkpt>
   <trkpt lat="48.67015000000001" lon="-2.92049">
    <ele>52.93000000000001</ele>
   </trkpt>
   <trkpt lat="48.669900000000005" lon="-2.9209300000000002">
    <ele>53.4</ele>
   </trkpt>
   <trkpt lat="48.669625001612374" lon="-2.9215550035884226">
    <ele>54.080000000000005</ele>
   </trkpt>
   <trkpt lat="48.66935" lon="-2.9221800000000004">
    <ele>55.690000000000005</ele>
   </trkpt>
   <trkpt lat="48.66915" lon="-2.92199">
    <ele>55.82</ele>
   </trkpt>
   <trkpt lat="48.66908" lon="-2.92198">
    <ele>55.82</ele>
   </trkpt>
   <trkpt lat="48.669070000000005" lon="-2.92205">
    <ele>55.82</ele>
   </trkpt>
   <trkpt lat="48.66902" lon="-2.92214">
    <ele>54.85</ele>
   </trkpt>
   <trkpt lat="48.668960000000006" lon="-2.9222">
    <ele>54.85</ele>
   </trkpt>
   <trkpt lat="48.668910000000004" lon="-2.9222">
    <ele>54.85</ele>
   </trkpt>
   <trkpt lat="48.668910000000004" lon="-2.92248">
    <ele>54.37</ele>
   </trkpt>
   <trkpt lat="48.668890000000005" lon="-2.92268">
    <ele>54.150000000000006</ele>
   </trkpt>
   <trkpt lat="48.668755005839934" lon="-2.923840002964041">
    <ele>55.11000000000001</ele>
   </trkpt>
   <trkpt lat="48.668620000000004" lon="-2.9250000000000003">
    <ele>57.49</ele>
   </trkpt>
   <trkpt lat="48.66865000000001" lon="-2.92599">
    <ele>58.760000000000005</ele>
   </trkpt>
   <trkpt lat="48.66881" lon="-2.9268600000000005">
    <ele>61.120000000000005</ele>
   </trkpt>
   <trkpt lat="48.66897" lon="-2.9273700000000002">
    <ele>62.72000000000001</ele>
   </trkpt>
   <trkpt lat="48.669090000000004" lon="-2.92769">
    <ele>62.72000000000001</ele>
   </trkpt>
   <trkpt lat="48.66948000352922" lon="-2.928594992960335">
    <ele>67.82000000000001</ele>
   </trkpt>
   <trkpt lat="48.66987" lon="-2.9295000000000004">
    <ele>71.14</ele>
   </trkpt>
   <trkpt lat="48.67009" lon="-2.9299500000000003">
    <ele>72.87</ele>
   </trkpt>
   <trkpt lat="48.670280000000005" lon="-2.93026">
    <ele>73.96000000000001</ele>
   </trkpt>
   <trkpt lat="48.670480000000005" lon="-2.93053">
    <ele>74.64000000000001</ele>
   </trkpt>
   <trkpt lat="48.670770000000005" lon="-2.93087">
    <ele>76.29</ele>
   </trkpt>
   <trkpt lat="48.67107000000001" lon="-2.93114">
    <ele>77.23</ele>
   </trkpt>
   <trkpt lat="48.67128" lon="-2.93128">
    <ele>78.12</ele>
   </trkpt>
   <trkpt lat="48.671620000000004" lon="-2.93147">
    <ele>79.69000000000001</ele>
   </trkpt>
   <trkpt lat="48.671800000000005" lon="-2.93155">
    <ele>80.49000000000001</ele>
   </trkpt>
   <trkpt lat="48.67208" lon="-2.93162">
    <ele>81.02000000000001</ele>
   </trkpt>
   <trkpt lat="48.672470000000004" lon="-2.93168">
    <ele>81.21000000000001</ele>
   </trkpt>
   <trkpt lat="48.67327000012409" lon="-2.93163000078684">
    <ele>81.93</ele>
   </trkpt>
   <trkpt lat="48.67407000000001" lon="-2.9315800000000003">
    <ele>84.30000000000001</ele>
   </trkpt>
   <trkpt lat="48.674290000000006" lon="-2.93161">
    <ele>85.02000000000001</ele>
   </trkpt>
   <trkpt lat="48.67455" lon="-2.93169">
    <ele>87.24000000000001</ele>
   </trkpt>
   <trkpt lat="48.67481" lon="-2.93175">
    <ele>87.24000000000001</ele>
   </trkpt>
   <trkpt lat="48.675290000000004" lon="-2.9316000000000004">
    <ele>90.53000000000002</ele>
   </trkpt>
   <trkpt lat="48.67549" lon="-2.9314500000000003">
    <ele>91.58000000000001</ele>
   </trkpt>
   <trkpt lat="48.6756" lon="-2.93135">
    <ele>92.02</ele>
   </trkpt>
   <trkpt lat="48.67559000000001" lon="-2.93127">
    <ele>92.1</ele>
   </trkpt>
   <trkpt lat="48.67562" lon="-2.9311800000000003">
    <ele>92.1</ele>
   </trkpt>
   <trkpt lat="48.675670000000004" lon="-2.93115">
    <ele>92.32000000000001</ele>
   </trkpt>
   <trkpt lat="48.67575" lon="-2.9312">
    <ele>92.86000000000001</ele>
   </trkpt>
   <trkpt lat="48.67577000000001" lon="-2.93128">
    <ele>92.86000000000001</ele>
   </trkpt>
   <trkpt lat="48.67624000000001" lon="-2.93114">
    <ele>93.93</ele>
   </trkpt>
   <trkpt lat="48.67707500001208" lon="-2.9311025018650128">
    <ele>96.93</ele>
   </trkpt>
   <trkpt lat="48.677910000012" lon="-2.9310650024869203">
    <ele>100.21000000000001</ele>
   </trkpt>
   <trkpt lat="48.67874499999976" lon="-2.9310275018656444">
    <ele>101.41000000000001</ele>
   </trkpt>
   <trkpt lat="48.67958" lon="-2.9309900000000004">
    <ele>99.23</ele>
   </trkpt>
   <trkpt lat="48.680160000138486" lon="-2.9309450005080926">
    <ele>96.80000000000001</ele>
   </trkpt>
   <trkpt lat="48.68074000000001" lon="-2.9309000000000003">
    <ele>94.03</ele>
   </trkpt>
   <trkpt lat="48.68162" lon="-2.93081">
    <ele>91.7</ele>
   </trkpt>
   <trkpt lat="48.68220000011236" lon="-2.9307250009669272">
    <ele>90.94000000000001</ele>
   </trkpt>
   <trkpt lat="48.68278" lon="-2.9306400000000004">
    <ele>91.13</ele>
   </trkpt>
   <trkpt lat="48.68309000000001" lon="-2.93061">
    <ele>90.39000000000001</ele>
   </trkpt>
   <trkpt lat="48.6835600000772" lon="-2.930634999770663">
    <ele>89.89000000000001</ele>
   </trkpt>
   <trkpt lat="48.68403000000001" lon="-2.93066">
    <ele>89.50000000000001</ele>
   </trkpt>
   <trkpt lat="48.68454500016286" lon="-2.93066">
    <ele>89.84</ele>
   </trkpt>
   <trkpt lat="48.68506000000001" lon="-2.93066">
    <ele>90.39000000000001</ele>
   </trkpt>
   <trkpt lat="48.68556" lon="-2.9306900000000002">
    <ele>90.52</ele>
   </trkpt>
   <trkpt lat="48.686285000065105" lon="-2.930784998635758">
    <ele>89.53000000000002</ele>
   </trkpt>
   <trkpt lat="48.68701" lon="-2.93088">
    <ele>89.02</ele>
   </trkpt>
   <trkpt lat="48.68739" lon="-2.9309600000000002">
    <ele>88.97</ele>
   </trkpt>
   <trkpt lat="48.68819500042289" lon="-2.931269995047045">
    <ele>88.77</ele>
   </trkpt>
   <trkpt lat="48.68900000000001" lon="-2.9315800000000003">
    <ele>89.01</ele>
   </trkpt>
   <trkpt lat="48.689220000000006" lon="-2.9317100000000003">
    <ele>89.05</ele>
   </trkpt>
   <trkpt lat="48.68988" lon="-2.9323500000000005">
    <ele>88.74000000000001</ele>
   </trkpt>
   <trkpt lat="48.690463336652996" lon="-2.9329633191897453">
    <ele>88.06000000000002</ele>
   </trkpt>
   <trkpt lat="48.691046670050476" lon="-2.9335766525903004">
    <ele>87.86</ele>
   </trkpt>
   <trkpt lat="48.69163" lon="-2.93419">
    <ele>88.19</ele>
   </trkpt>
   <trkpt lat="48.69212" lon="-2.9348">
    <ele>88.43</ele>
   </trkpt>
   <trkpt lat="48.69269000363558" lon="-2.9357149896617565">
    <ele>89.28000000000002</ele>
   </trkpt>
   <trkpt lat="48.69326" lon="-2.93663">
    <ele>91.25000000000001</ele>
   </trkpt>
   <trkpt lat="48.69365500102906" lon="-2.9371049963367835">
    <ele>92.13</ele>
   </trkpt>
   <trkpt lat="48.694050000000004" lon="-2.93758">
    <ele>92.45</ele>
   </trkpt>
   <trkpt lat="48.69427" lon="-2.9378200000000003">
    <ele>92.29</ele>
   </trkpt>
   <trkpt lat="48.694660000000006" lon="-2.9381800000000005">
    <ele>91.94000000000001</ele>
   </trkpt>
   <trkpt lat="48.695075000622595" lon="-2.938489997599034">
    <ele>91.47000000000001</ele>
   </trkpt>
   <trkpt lat="48.69549000000001" lon="-2.9388">
    <ele>91.18</ele>
   </trkpt>
   <trkpt lat="48.69597" lon="-2.93921">
    <ele>90.67</ele>
   </trkpt>
   <trkpt lat="48.69650000000001" lon="-2.93982">
    <ele>91.02</ele>
   </trkpt>
   <trkpt lat="48.69670000000001" lon="-2.94002">
    <ele>91.06</ele>
   </trkpt>
   <trkpt lat="48.69682" lon="-2.9401100000000002">
    <ele>91.03000000000002</ele>
   </trkpt>
   <trkpt lat="48.69751" lon="-2.9404800000000004">
    <ele>90.48</ele>
   </trkpt>
   <trkpt lat="48.69783" lon="-2.9408200000000004">
    <ele>89.65</ele>
   </trkpt>
   <trkpt lat="48.69843" lon="-2.94151">
    <ele>88.7</ele>
   </trkpt>
   <trkpt lat="48.69863" lon="-2.94178">
    <ele>88.69</ele>
   </trkpt>
   <trkpt lat="48.699020000000004" lon="-2.9424900000000003">
    <ele>88.86000000000001</ele>
   </trkpt>
   <trkpt lat="48.699250000000006" lon="-2.94295">
    <ele>89.31</ele>
   </trkpt>
   <trkpt lat="48.699570001258905" lon="-2.943459996970509">
    <ele>89.76</ele>
   </trkpt>
   <trkpt lat="48.69989" lon="-2.94397">
    <ele>90.15</ele>
   </trkpt>
   <trkpt lat="48.700230000000005" lon="-2.94463">
    <ele>90.64000000000001</ele>
   </trkpt>
   <trkpt lat="48.700520000000004" lon="-2.94532">
    <ele>90.38</ele>
   </trkpt>
   <trkpt lat="48.7008" lon="-2.9462">
    <ele>89.25000000000001</ele>
   </trkpt>
   <trkpt lat="48.70096" lon="-2.9466300000000003">
    <ele>89.08</ele>
   </trkpt>
   <trkpt lat="48.70118" lon="-2.9470600000000005">
    <ele>88.94</ele>
   </trkpt>
   <trkpt lat="48.70141" lon="-2.9474">
    <ele>88.78000000000002</ele>
   </trkpt>
   <trkpt lat="48.70179000090465" lon="-2.9478449966963294">
    <ele>88.59</ele>
   </trkpt>
   <trkpt lat="48.70217" lon="-2.94829">
    <ele>88.75000000000001</ele>
   </trkpt>
   <trkpt lat="48.702580000000005" lon="-2.9489">
    <ele>88.84</ele>
   </trkpt>
   <trkpt lat="48.70295" lon="-2.94953">
    <ele>89.26</ele>
   </trkpt>
   <trkpt lat="48.703450000000004" lon="-2.9505500000000002">
    <ele>90.12</ele>
   </trkpt>
   <trkpt lat="48.70379500140272" lon="-2.9511399957786493">
    <ele>91.33000000000001</ele>
   </trkpt>
   <trkpt lat="48.70414" lon="-2.9517300000000004">
    <ele>92.58000000000001</ele>
   </trkpt>
   <trkpt lat="48.70467000000001" lon="-2.95256">
    <ele>93.91000000000001</ele>
   </trkpt>
   <trkpt lat="48.70499000116519" lon="-2.9530849966168526">
    <ele>94.2</ele>
   </trkpt>
   <trkpt lat="48.705310000000004" lon="-2.9536100000000003">
    <ele>94.31</ele>
   </trkpt>
   <trkpt lat="48.705665000928455" lon="-2.9540949964567234">
    <ele>94.78</ele>
   </trkpt>
   <trkpt lat="48.70602" lon="-2.9545800000000004">
    <ele>95.41000000000001</ele>
   </trkpt>
   <trkpt lat="48.706230000000005" lon="-2.9544900000000003">
    <ele>95.49000000000001</ele>
   </trkpt>
   <trkpt lat="48.70709" lon="-2.95447">
    <ele>95.52000000000001</ele>
   </trkpt>
   <trkpt lat="48.70765000002706" lon="-2.9544600001108074">
    <ele>94.97000000000001</ele>
   </trkpt>
   <trkpt lat="48.70821" lon="-2.95445">
    <ele>94.54</ele>
   </trkpt>
   <trkpt lat="48.70895" lon="-2.9543500000000003">
    <ele>92.92</ele>
   </trkpt>
   <trkpt lat="48.70935" lon="-2.95433">
    <ele>92.09</ele>
   </trkpt>
   <trkpt lat="48.70964000000001" lon="-2.9543800000000005">
    <ele>91.06</ele>
   </trkpt>
   <trkpt lat="48.710150000000006" lon="-2.95461">
    <ele>89.00000000000001</ele>
   </trkpt>
   <trkpt lat="48.71040000000001" lon="-2.95468">
    <ele>88.43</ele>
   </trkpt>
   <trkpt lat="48.71122500005154" lon="-2.95485499711344">
    <ele>87.88000000000001</ele>
   </trkpt>
   <trkpt lat="48.712050000000005" lon="-2.9550300000000003">
    <ele>87.14</ele>
   </trkpt>
   <trkpt lat="48.712649999874635" lon="-2.955184998092336">
    <ele>86.84</ele>
   </trkpt>
   <trkpt lat="48.71325" lon="-2.95534">
    <ele>86.53</ele>
   </trkpt>
   <trkpt lat="48.71351000000001" lon="-2.95541">
    <ele>86.5</ele>
   </trkpt>
   <trkpt lat="48.71425000000001" lon="-2.9557">
    <ele>87.41</ele>
   </trkpt>
   <trkpt lat="48.71448" lon="-2.95574">
    <ele>87.41</ele>
   </trkpt>
   <trkpt lat="48.71473" lon="-2.9557100000000003">
    <ele>88.08</ele>
   </trkpt>
   <trkpt lat="48.71493" lon="-2.9556400000000003">
    <ele>88.10000000000001</ele>
   </trkpt>
   <trkpt lat="48.715140000000005" lon="-2.95554">
    <ele>87.94</ele>
   </trkpt>
   <trkpt lat="48.7156" lon="-2.9551600000000002">
    <ele>86.99000000000001</ele>
   </trkpt>
   <trkpt lat="48.715770000000006" lon="-2.9551000000000003">
    <ele>85.24000000000001</ele>
   </trkpt>
   <trkpt lat="48.71593000000001" lon="-2.95507">
    <ele>85.24000000000001</ele>
   </trkpt>
   <trkpt lat="48.71618" lon="-2.95508">
    <ele>84.53</ele>
   </trkpt>
   <trkpt lat="48.71631000000001" lon="-2.95506">
    <ele>84.53</ele>
   </trkpt>
   <trkpt lat="48.716460000000005" lon="-2.9549700000000003">
    <ele>83.89</ele>
   </trkpt>
   <trkpt lat="48.7167" lon="-2.95468">
    <ele>82.75</ele>
   </trkpt>
   <trkpt lat="48.716990001264605" lon="-2.954135003180361">
    <ele>81.12</ele>
   </trkpt>
   <trkpt lat="48.71728" lon="-2.95359">
    <ele>78.19000000000001</ele>
   </trkpt>
   <trkpt lat="48.71746" lon="-2.9533300000000002">
    <ele>77.6</ele>
   </trkpt>
   <trkpt lat="48.71810000000001" lon="-2.9527">
    <ele>76.27</ele>
   </trkpt>
   <trkpt lat="48.718270000000004" lon="-2.95258">
    <ele>76.19000000000001</ele>
   </trkpt>
   <trkpt lat="48.71839000000001" lon="-2.95258">
    <ele>76.32000000000001</ele>
   </trkpt>
   <trkpt lat="48.718540000000004" lon="-2.95264">
    <ele>76.72000000000001</ele>
   </trkpt>
   <trkpt lat="48.718610000000005" lon="-2.9527">
    <ele>76.72000000000001</ele>
   </trkpt>
   <trkpt lat="48.71896" lon="-2.9531600000000005">
    <ele>77.17</ele>
   </trkpt>
   <trkpt lat="48.719100000000005" lon="-2.9532700000000003">
    <ele>77.57</ele>
   </trkpt>
   <trkpt lat="48.719280000000005" lon="-2.95339">
    <ele>77.30000000000001</ele>
   </trkpt>
   <trkpt lat="48.71945" lon="-2.9534100000000003">
    <ele>76.75000000000001</ele>
   </trkpt>
   <trkpt lat="48.71961" lon="-2.95337">
    <ele>75.58000000000001</ele>
   </trkpt>
   <trkpt lat="48.720110000000005" lon="-2.9531300000000003">
    <ele>72.16</ele>
   </trkpt>
   <trkpt lat="48.720600000000005" lon="-2.95292">
    <ele>68.14</ele>
   </trkpt>
   <trkpt lat="48.721180000000004" lon="-2.95257">
    <ele>67.33</ele>
   </trkpt>
   <trkpt lat="48.72148000000001" lon="-2.95229">
    <ele>66.92</ele>
   </trkpt>
   <trkpt lat="48.721970000000006" lon="-2.9517700000000002">
    <ele>65.87</ele>
   </trkpt>
   <trkpt lat="48.72261000167938" lon="-2.9511450079634183">
    <ele>60.870000000000005</ele>
   </trkpt>
   <trkpt lat="48.72325000000001" lon="-2.95052">
    <ele>57.080000000000005</ele>
   </trkpt>
   <trkpt lat="48.72388" lon="-2.94987">
    <ele>57.120000000000005</ele>
   </trkpt>
   <trkpt lat="48.72433" lon="-2.94938">
    <ele>58.06000000000001</ele>
   </trkpt>
   <trkpt lat="48.72453" lon="-2.9492200000000004">
    <ele>57.34</ele>
   </trkpt>
   <trkpt lat="48.724680000000006" lon="-2.94918">
    <ele>56.46</ele>
   </trkpt>
   <trkpt lat="48.724830000000004" lon="-2.9492000000000003">
    <ele>54.18000000000001</ele>
   </trkpt>
   <trkpt lat="48.72542000000001" lon="-2.94958">
    <ele>48.84</ele>
   </trkpt>
   <trkpt lat="48.725680000000004" lon="-2.9497700000000004">
    <ele>43.59</ele>
   </trkpt>
   <trkpt lat="48.72612" lon="-2.94991">
    <ele>41.92</ele>
   </trkpt>
   <trkpt lat="48.72618000000001" lon="-2.9499600000000004">
    <ele>41.830000000000005</ele>
   </trkpt>
   <trkpt lat="48.72625000000001" lon="-2.95005">
    <ele>40.6</ele>
   </trkpt>
   <trkpt lat="48.726310000000005" lon="-2.9502200000000003">
    <ele>38.89</ele>
   </trkpt>
   <trkpt lat="48.726330000000004" lon="-2.95046">
    <ele>38.06</ele>
   </trkpt>
   <trkpt lat="48.72625000000001" lon="-2.95162">
    <ele>33.68</ele>
   </trkpt>
   <trkpt lat="48.726200000000006" lon="-2.95183">
    <ele>32.64</ele>
   </trkpt>
   <trkpt lat="48.726000000000006" lon="-2.95235">
    <ele>30.0</ele>
   </trkpt>
   <trkpt lat="48.72599" lon="-2.95242">
    <ele>29.220000000000002</ele>
   </trkpt>
   <trkpt lat="48.72601" lon="-2.95256">
    <ele>28.310000000000002</ele>
   </trkpt>
   <trkpt lat="48.726040000000005" lon="-2.95264">
    <ele>28.310000000000002</ele>
   </trkpt>
   <trkpt lat="48.72612" lon="-2.95271">
    <ele>26.27</ele>
   </trkpt>
   <trkpt lat="48.72621" lon="-2.95269">
    <ele>25.79</ele>
   </trkpt>
   <trkpt lat="48.726330000000004" lon="-2.95249">
    <ele>24.560000000000002</ele>
   </trkpt>
   <trkpt lat="48.72655" lon="-2.95143">
    <ele>18.44</ele>
   </trkpt>
   <trkpt lat="48.72665000000001" lon="-2.95113">
    <ele>16.42</ele>
   </trkpt>
   <trkpt lat="48.727030000000006" lon="-2.9501000000000004">
    <ele>11.120000000000001</ele>
   </trkpt>
   <trkpt lat="48.727430000000005" lon="-2.94896">
    <ele>8.530000000000001</ele>
   </trkpt>
   <trkpt lat="48.727250000000005" lon="-2.94883">
    <ele>8.650000000000002</ele>
   </trkpt>
   <trkpt lat="48.72721000000001" lon="-2.9488200000000004">
    <ele>8.650000000000002</ele>
   </trkpt>
   <trkpt lat="48.72704" lon="-2.94842">
    <ele>8.68</ele>
   </trkpt>
   <trkpt lat="48.72731" lon="-2.9483400000000004">
    <ele>8.540000000000001</ele>
   </trkpt>
   <trkpt lat="48.72733" lon="-2.94842">
    <ele>8.540000000000001</ele>
   </trkpt>
   <trkpt lat="48.72771" lon="-2.94937">
    <ele>9.05</ele>
   </trkpt>
   <trkpt lat="48.72776" lon="-2.9496100000000003">
    <ele>9.160000000000002</ele>
   </trkpt>
   <trkpt lat="48.72775000000001" lon="-2.94985">
    <ele>9.370000000000001</ele>
   </trkpt>
   <trkpt lat="48.72766000000001" lon="-2.95039">
    <ele>9.860000000000001</ele>
   </trkpt>
   <trkpt lat="48.7274950021693" lon="-2.951100002379792">
    <ele>10.100000000000001</ele>
   </trkpt>
   <trkpt lat="48.72733" lon="-2.95181">
    <ele>10.92</ele>
   </trkpt>
   <trkpt lat="48.72707500334931" lon="-2.95268500431047">
    <ele>11.9</ele>
   </trkpt>
   <trkpt lat="48.726820000000004" lon="-2.9535600000000004">
    <ele>12.74</ele>
   </trkpt>
   <trkpt lat="48.72663000000001" lon="-2.9543800000000005">
    <ele>13.64</ele>
   </trkpt>
   <trkpt lat="48.72655" lon="-2.95502">
    <ele>13.860000000000001</ele>
   </trkpt>
   <trkpt lat="48.726560000000006" lon="-2.9557">
    <ele>14.22</ele>
   </trkpt>
   <trkpt lat="48.72654000000001" lon="-2.9562100000000004">
    <ele>14.39</ele>
   </trkpt>
   <trkpt lat="48.726510000000005" lon="-2.95643">
    <ele>14.600000000000001</ele>
   </trkpt>
   <trkpt lat="48.726310000000005" lon="-2.95697">
    <ele>15.690000000000003</ele>
   </trkpt>
   <trkpt lat="48.726060000000004" lon="-2.95746">
    <ele>17.45</ele>
   </trkpt>
   <trkpt lat="48.72579" lon="-2.95784">
    <ele>19.05</ele>
   </trkpt>
   <trkpt lat="48.72578000000001" lon="-2.95785">
    <ele>19.05</ele>
   </trkpt>
   <trkpt lat="48.725460000000005" lon="-2.95819">
    <ele>20.900000000000002</ele>
   </trkpt>
   <trkpt lat="48.72496" lon="-2.95868">
    <ele>22.54</ele>
   </trkpt>
   <trkpt lat="48.72473" lon="-2.95886">
    <ele>22.860000000000003</ele>
   </trkpt>
   <trkpt lat="48.724500000000006" lon="-2.9589900000000005">
    <ele>23.160000000000004</ele>
   </trkpt>
   <trkpt lat="48.723710000000004" lon="-2.95927">
    <ele>25.7</ele>
   </trkpt>
   <trkpt lat="48.72348" lon="-2.9594600000000004">
    <ele>27.1</ele>
   </trkpt>
   <trkpt lat="48.72307000099957" lon="-2.9599500040413433">
    <ele>28.580000000000002</ele>
   </trkpt>
   <trkpt lat="48.722660000000005" lon="-2.96044">
    <ele>30.410000000000004</ele>
   </trkpt>
   <trkpt lat="48.72225000163222" lon="-2.9610550050195825">
    <ele>31.720000000000006</ele>
   </trkpt>
   <trkpt lat="48.72184000000001" lon="-2.9616700000000002">
    <ele>32.440000000000005</ele>
   </trkpt>
   <trkpt lat="48.72124" lon="-2.9623500000000003">
    <ele>32.67</ele>
   </trkpt>
   <trkpt lat="48.720960000000005" lon="-2.9626500000000004">
    <ele>32.93</ele>
   </trkpt>
   <trkpt lat="48.720220000000005" lon="-2.96328">
    <ele>36.06</ele>
   </trkpt>
   <trkpt lat="48.719805001082904" lon="-2.9637550037968143">
    <ele>40.290000000000006</ele>
   </trkpt>
   <trkpt lat="48.719390000000004" lon="-2.96423">
    <ele>41.410000000000004</ele>
   </trkpt>
   <trkpt lat="48.71902" lon="-2.96457">
    <ele>41.620000000000005</ele>
   </trkpt>
   <trkpt lat="48.7186" lon="-2.96483">
    <ele>41.870000000000005</ele>
   </trkpt>
   <trkpt lat="48.71838" lon="-2.96485">
    <ele>42.150000000000006</ele>
   </trkpt>
   <trkpt lat="48.718090000000004" lon="-2.9648600000000003">
    <ele>42.68</ele>
   </trkpt>
   <trkpt lat="48.717800000000004" lon="-2.96489">
    <ele>43.88</ele>
   </trkpt>
   <trkpt lat="48.717600000000004" lon="-2.96496">
    <ele>45.15</ele>
   </trkpt>
   <trkpt lat="48.71706000035621" lon="-2.9652000025287157">
    <ele>45.720000000000006</ele>
   </trkpt>
   <trkpt lat="48.71652" lon="-2.96544">
    <ele>44.910000000000004</ele>
   </trkpt>
   <trkpt lat="48.716150000000006" lon="-2.9656300000000004">
    <ele>46.18000000000001</ele>
   </trkpt>
   <trkpt lat="48.716010000000004" lon="-2.9656000000000002">
    <ele>46.470000000000006</ele>
   </trkpt>
   <trkpt lat="48.71564" lon="-2.9654000000000003">
    <ele>48.25</ele>
   </trkpt>
   <trkpt lat="48.71548000000001" lon="-2.9652900000000004">
    <ele>49.49</ele>
   </trkpt>
   <trkpt lat="48.71515" lon="-2.96484">
    <ele>53.730000000000004</ele>
   </trkpt>
   <trkpt lat="48.715030000000006" lon="-2.9647200000000002">
    <ele>55.120000000000005</ele>
   </trkpt>
   <trkpt lat="48.714780000000005" lon="-2.96456">
    <ele>56.89</ele>
   </trkpt>
   <trkpt lat="48.7145" lon="-2.9644500000000003">
    <ele>58.2</ele>
   </trkpt>
   <trkpt lat="48.714180000000006" lon="-2.96451">
    <ele>58.43</ele>
   </trkpt>
   <trkpt lat="48.71407000000001" lon="-2.96451">
    <ele>58.53</ele>
   </trkpt>
   <trkpt lat="48.713840000000005" lon="-2.96437">
    <ele>58.85000000000001</ele>
   </trkpt>
   <trkpt lat="48.713770000000004" lon="-2.96429">
    <ele>59.190000000000005</ele>
   </trkpt>
   <trkpt lat="48.713820000000005" lon="-2.9642100000000005">
    <ele>59.35000000000001</ele>
   </trkpt>
   <trkpt lat="48.713860000000004" lon="-2.96409">
    <ele>59.95</ele>
   </trkpt>
   <trkpt lat="48.713860000000004" lon="-2.9639800000000003">
    <ele>59.95</ele>
   </trkpt>
   <trkpt lat="48.713750000000005" lon="-2.96375">
    <ele>60.97</ele>
   </trkpt>
   <trkpt lat="48.71369000000001" lon="-2.9635200000000004">
    <ele>62.42</ele>
   </trkpt>
   <trkpt lat="48.71369000000001" lon="-2.96321">
    <ele>63.660000000000004</ele>
   </trkpt>
   <trkpt lat="48.71374" lon="-2.96239">
    <ele>67.48</ele>
   </trkpt>
   <trkpt lat="48.71379" lon="-2.96198">
    <ele>70.3</ele>
   </trkpt>
   <trkpt lat="48.713910000000006" lon="-2.9615">
    <ele>73.47000000000001</ele>
   </trkpt>
   <trkpt lat="48.71397" lon="-2.96132">
    <ele>75.25000000000001</ele>
   </trkpt>
   <trkpt lat="48.71414" lon="-2.9610100000000004">
    <ele>77.34</ele>
   </trkpt>
   <trkpt lat="48.71419" lon="-2.96069">
    <ele>78.52000000000001</ele>
   </trkpt>
   <trkpt lat="48.71421" lon="-2.96036">
    <ele>78.86</ele>
   </trkpt>
   <trkpt lat="48.71406" lon="-2.9595100000000003">
    <ele>80.17</ele>
   </trkpt>
   <trkpt lat="48.71397" lon="-2.95906">
    <ele>81.09</ele>
   </trkpt>
   <trkpt lat="48.713930000000005" lon="-2.9589600000000003">
    <ele>82.4</ele>
   </trkpt>
   <trkpt lat="48.71374" lon="-2.95873">
    <ele>83.38000000000001</ele>
   </trkpt>
   <trkpt lat="48.713640000000005" lon="-2.9585800000000004">
    <ele>83.38000000000001</ele>
   </trkpt>
   <trkpt lat="48.713570000000004" lon="-2.9583500000000003">
    <ele>84.65</ele>
   </trkpt>
   <trkpt lat="48.713530000000006" lon="-2.95813">
    <ele>85.18</ele>
   </trkpt>
   <trkpt lat="48.71345" lon="-2.95739">
    <ele>86.21000000000001</ele>
   </trkpt>
   <trkpt lat="48.713330000000006" lon="-2.95738">
    <ele>86.14</ele>
   </trkpt>
   <trkpt lat="48.713260000000005" lon="-2.9571500000000004">
    <ele>86.08</ele>
   </trkpt>
   <trkpt lat="48.713150000000006" lon="-2.9566600000000003">
    <ele>86.11</ele>
   </trkpt>
   <trkpt lat="48.713060000000006" lon="-2.9564100000000004">
    <ele>86.13000000000001</ele>
   </trkpt>
   <trkpt lat="48.712970000000006" lon="-2.95622">
    <ele>86.27000000000001</ele>
   </trkpt>
   <trkpt lat="48.71278" lon="-2.95588">
    <ele>86.27000000000001</ele>
   </trkpt>
   <trkpt lat="48.71241500096656" lon="-2.9554549971322857">
    <ele>86.49000000000001</ele>
   </trkpt>
   <trkpt lat="48.712050000000005" lon="-2.9550300000000003">
    <ele>87.14</ele>
   </trkpt>
   <trkpt lat="48.71122500021351" lon="-2.954854997147793">
    <ele>87.88000000000001</ele>
   </trkpt>
   <trkpt lat="48.71040000000001" lon="-2.95468">
    <ele>88.43</ele>
   </trkpt>
   <trkpt lat="48.710150000000006" lon="-2.95461">
    <ele>89.00000000000001</ele>
   </trkpt>
   <trkpt lat="48.70964000000001" lon="-2.9543800000000005">
    <ele>91.06</ele>
   </trkpt>
   <trkpt lat="48.70935" lon="-2.95433">
    <ele>92.09</ele>
   </trkpt>
   <trkpt lat="48.70895" lon="-2.9543500000000003">
    <ele>92.92</ele>
   </trkpt>
   <trkpt lat="48.70821" lon="-2.95445">
    <ele>94.54</ele>
   </trkpt>
   <trkpt lat="48.707649999973796" lon="-2.9544600001117587">
    <ele>94.97000000000001</ele>
   </trkpt>
   <trkpt lat="48.70709" lon="-2.95447">
    <ele>95.52000000000001</ele>
   </trkpt>
   <trkpt lat="48.706230000000005" lon="-2.9544900000000003">
    <ele>95.49000000000001</ele>
   </trkpt>
   <trkpt lat="48.70602" lon="-2.9545800000000004">
    <ele>95.41000000000001</ele>
   </trkpt>
   <trkpt lat="48.70566500110713" lon="-2.954094996700828">
    <ele>94.78</ele>
   </trkpt>
   <trkpt lat="48.705310000000004" lon="-2.9536100000000003">
    <ele>94.31</ele>
   </trkpt>
   <trkpt lat="48.704950000000004" lon="-2.95446">
    <ele>93.18</ele>
   </trkpt>
   <trkpt lat="48.70467000000001" lon="-2.95534">
    <ele>92.38</ele>
   </trkpt>
   <trkpt lat="48.70423" lon="-2.9562800000000005">
    <ele>91.76</ele>
   </trkpt>
   <trkpt lat="48.70412" lon="-2.95656">
    <ele>91.53000000000002</ele>
   </trkpt>
   <trkpt lat="48.70367" lon="-2.95744">
    <ele>90.46000000000001</ele>
   </trkpt>
   <trkpt lat="48.70346000000001" lon="-2.95773">
    <ele>89.8</ele>
   </trkpt>
   <trkpt lat="48.70304" lon="-2.95805">
    <ele>89.16</ele>
   </trkpt>
   <trkpt lat="48.702470000000005" lon="-2.95832">
    <ele>87.94</ele>
   </trkpt>
   <trkpt lat="48.702360000000006" lon="-2.95839">
    <ele>87.94</ele>
   </trkpt>
   <trkpt lat="48.702110000000005" lon="-2.95859">
    <ele>87.56000000000002</ele>
   </trkpt>
   <trkpt lat="48.701690000000006" lon="-2.95909">
    <ele>86.58</ele>
   </trkpt>
   <trkpt lat="48.70149000000001" lon="-2.9593000000000003">
    <ele>86.29</ele>
   </trkpt>
   <trkpt lat="48.70099000056391" lon="-2.9596950040116585">
    <ele>83.88000000000001</ele>
   </trkpt>
   <trkpt lat="48.70049" lon="-2.96009">
    <ele>82.35000000000001</ele>
   </trkpt>
   <trkpt lat="48.70037000000001" lon="-2.9602600000000003">
    <ele>81.84</ele>
   </trkpt>
   <trkpt lat="48.69995" lon="-2.96103">
    <ele>81.48</ele>
   </trkpt>
   <trkpt lat="48.699560000000005" lon="-2.96164">
    <ele>81.19000000000001</ele>
   </trkpt>
   <trkpt lat="48.699490000000004" lon="-2.96178">
    <ele>81.27000000000001</ele>
   </trkpt>
   <trkpt lat="48.69941000000001" lon="-2.962">
    <ele>81.47</ele>
   </trkpt>
   <trkpt lat="48.69920000392055" lon="-2.9629550041013766">
    <ele>81.18</ele>
   </trkpt>
   <trkpt lat="48.69899" lon="-2.9639100000000003">
    <ele>80.68</ele>
   </trkpt>
   <trkpt lat="48.69888" lon="-2.9641900000000003">
    <ele>80.49000000000001</ele>
   </trkpt>
   <trkpt lat="48.69865" lon="-2.9645200000000003">
    <ele>79.89</ele>
   </trkpt>
   <trkpt lat="48.698310000000006" lon="-2.96483">
    <ele>79.42999999999999</ele>
   </trkpt>
   <trkpt lat="48.69821" lon="-2.96498">
    <ele>79.38000000000001</ele>
   </trkpt>
   <trkpt lat="48.698150000000005" lon="-2.9651">
    <ele>79.35000000000001</ele>
   </trkpt>
   <trkpt lat="48.69783" lon="-2.96476">
    <ele>77.94000000000001</ele>
   </trkpt>
   <trkpt lat="48.69720000092188" lon="-2.964249993452663">
    <ele>76.19000000000001</ele>
   </trkpt>
   <trkpt lat="48.69657" lon="-2.96374">
    <ele>74.97000000000001</ele>
   </trkpt>
   <trkpt lat="48.69643000000001" lon="-2.96361">
    <ele>74.52</ele>
   </trkpt>
   <trkpt lat="48.69603000000001" lon="-2.9631000000000003">
    <ele>73.68</ele>
   </trkpt>
   <trkpt lat="48.695510000000006" lon="-2.9628500000000004">
    <ele>72.88</ele>
   </trkpt>
   <trkpt lat="48.695100000000004" lon="-2.9625800000000004">
    <ele>71.23</ele>
   </trkpt>
   <trkpt lat="48.69493000000001" lon="-2.9625000000000004">
    <ele>70.9</ele>
   </trkpt>
   <trkpt lat="48.6948" lon="-2.96254">
    <ele>70.7</ele>
   </trkpt>
   <trkpt lat="48.694610000000004" lon="-2.96273">
    <ele>70.61</ele>
   </trkpt>
   <trkpt lat="48.69436" lon="-2.96288">
    <ele>70.58</ele>
   </trkpt>
   <trkpt lat="48.69424" lon="-2.96293">
    <ele>70.58</ele>
   </trkpt>
   <trkpt lat="48.69404" lon="-2.9629600000000003">
    <ele>70.52</ele>
   </trkpt>
   <trkpt lat="48.693920000000006" lon="-2.96294">
    <ele>70.52</ele>
   </trkpt>
   <trkpt lat="48.69359000000001" lon="-2.96281">
    <ele>70.34</ele>
   </trkpt>
   <trkpt lat="48.6931" lon="-2.96254">
    <ele>70.47</ele>
   </trkpt>
   <trkpt lat="48.69281" lon="-2.96252">
    <ele>70.79</ele>
   </trkpt>
   <trkpt lat="48.69257" lon="-2.9625500000000002">
    <ele>71.29</ele>
   </trkpt>
   <trkpt lat="48.69200000000001" lon="-2.96245">
    <ele>70.68</ele>
   </trkpt>
   <trkpt lat="48.691930000000006" lon="-2.96245">
    <ele>70.68</ele>
   </trkpt>
   <trkpt lat="48.69178" lon="-2.96259">
    <ele>70.48</ele>
   </trkpt>
   <trkpt lat="48.691610000000004" lon="-2.9628500000000004">
    <ele>70.53</ele>
   </trkpt>
   <trkpt lat="48.691520000000004" lon="-2.96293">
    <ele>70.53</ele>
   </trkpt>
   <trkpt lat="48.69144000000001" lon="-2.9629900000000005">
    <ele>70.7</ele>
   </trkpt>
   <trkpt lat="48.69079999994387" lon="-2.963095001351644">
    <ele>71.3</ele>
   </trkpt>
   <trkpt lat="48.690160000000006" lon="-2.9632">
    <ele>70.62</ele>
   </trkpt>
   <trkpt lat="48.68932" lon="-2.96322">
    <ele>68.47</ele>
   </trkpt>
   <trkpt lat="48.68898" lon="-2.96329">
    <ele>67.79</ele>
   </trkpt>
   <trkpt lat="48.68878" lon="-2.9634600000000004">
    <ele>67.85000000000001</ele>
   </trkpt>
   <trkpt lat="48.68862000000001" lon="-2.9636400000000003">
    <ele>68.2</ele>
   </trkpt>
   <trkpt lat="48.688370000000006" lon="-2.96388">
    <ele>68.56</ele>
   </trkpt>
   <trkpt lat="48.68818" lon="-2.96395">
    <ele>68.67</ele>
   </trkpt>
   <trkpt lat="48.68809" lon="-2.96396">
    <ele>68.83</ele>
   </trkpt>
   <trkpt lat="48.687410000037126" lon="-2.963889998108994">
    <ele>70.36</ele>
   </trkpt>
   <trkpt lat="48.68673000003183" lon="-2.9638199981084816">
    <ele>72.14000000000001</ele>
   </trkpt>
   <trkpt lat="48.68605" lon="-2.96375">
    <ele>73.75000000000001</ele>
   </trkpt>
   <trkpt lat="48.68596" lon="-2.96376">
    <ele>73.75000000000001</ele>
   </trkpt>
   <trkpt lat="48.685770000000005" lon="-2.96382">
    <ele>74.28000000000002</ele>
   </trkpt>
   <trkpt lat="48.68553000000001" lon="-2.96395">
    <ele>74.79</ele>
   </trkpt>
   <trkpt lat="48.685120000000005" lon="-2.96408">
    <ele>75.47000000000001</ele>
   </trkpt>
   <trkpt lat="48.684475000019816" lon="-2.9642250018730127">
    <ele>77.14</ele>
   </trkpt>
   <trkpt lat="48.68383000000001" lon="-2.96437">
    <ele>77.99000000000001</ele>
   </trkpt>
   <trkpt lat="48.68338000022742" lon="-2.964495001072458">
    <ele>78.23</ele>
   </trkpt>
   <trkpt lat="48.682930000000006" lon="-2.96462">
    <ele>78.07</ele>
   </trkpt>
   <trkpt lat="48.68253000000001" lon="-2.96463">
    <ele>78.30000000000001</ele>
   </trkpt>
   <trkpt lat="48.68215000000001" lon="-2.9646100000000004">
    <ele>79.46000000000001</ele>
   </trkpt>
   <trkpt lat="48.682120000000005" lon="-2.96463">
    <ele>79.46000000000001</ele>
   </trkpt>
   <trkpt lat="48.68179000000001" lon="-2.96388">
    <ele>80.02000000000001</ele>
   </trkpt>
   <trkpt lat="48.68139000000001" lon="-2.9631900000000004">
    <ele>80.4</ele>
   </trkpt>
   <trkpt lat="48.68121000000001" lon="-2.96274">
    <ele>80.76</ele>
   </trkpt>
   <trkpt lat="48.68113" lon="-2.96246">
    <ele>80.80000000000001</ele>
   </trkpt>
   <trkpt lat="48.68101" lon="-2.9618200000000003">
    <ele>80.97</ele>
   </trkpt>
   <trkpt lat="48.68095" lon="-2.96084">
    <ele>81.44000000000001</ele>
   </trkpt>
   <trkpt lat="48.680790003215954" lon="-2.9599749971340237">
    <ele>83.17</ele>
   </trkpt>
   <trkpt lat="48.68063" lon="-2.9591100000000004">
    <ele>85.13000000000001</ele>
   </trkpt>
   <trkpt lat="48.68063" lon="-2.9589100000000004">
    <ele>85.26</ele>
   </trkpt>
   <trkpt lat="48.680730000000004" lon="-2.95791">
    <ele>86.93</ele>
   </trkpt>
   <trkpt lat="48.680780000000006" lon="-2.95697">
    <ele>87.73</ele>
   </trkpt>
   <trkpt lat="48.68074000000001" lon="-2.9562800000000005">
    <ele>88.42000000000002</ele>
   </trkpt>
   <trkpt lat="48.68063" lon="-2.95556">
    <ele>89.82000000000001</ele>
   </trkpt>
   <trkpt lat="48.68059" lon="-2.9552">
    <ele>90.34</ele>
   </trkpt>
   <trkpt lat="48.68068" lon="-2.95427">
    <ele>90.97000000000001</ele>
   </trkpt>
   <trkpt lat="48.68072" lon="-2.95364">
    <ele>92.12</ele>
   </trkpt>
   <trkpt lat="48.6807" lon="-2.95332">
    <ele>92.55000000000001</ele>
   </trkpt>
   <trkpt lat="48.680620000000005" lon="-2.9529">
    <ele>93.80000000000001</ele>
   </trkpt>
   <trkpt lat="48.680510000000005" lon="-2.9525200000000003">
    <ele>93.80000000000001</ele>
   </trkpt>
   <trkpt lat="48.68045" lon="-2.95216">
    <ele>94.22000000000001</ele>
   </trkpt>
   <trkpt lat="48.68034" lon="-2.95121">
    <ele>95.11000000000001</ele>
   </trkpt>
   <trkpt lat="48.68025" lon="-2.95082">
    <ele>95.37</ele>
   </trkpt>
   <trkpt lat="48.680110000000006" lon="-2.9504200000000003">
    <ele>95.87</ele>
   </trkpt>
   <trkpt lat="48.67983" lon="-2.94992">
    <ele>97.01</ele>
   </trkpt>
   <trkpt lat="48.679680000000005" lon="-2.94951">
    <ele>98.01</ele>
   </trkpt>
   <trkpt lat="48.67954" lon="-2.9489">
    <ele>98.33000000000001</ele>
   </trkpt>
   <trkpt lat="48.67944000000001" lon="-2.94808">
    <ele>98.82000000000001</ele>
   </trkpt>
   <trkpt lat="48.67935000000001" lon="-2.9477">
    <ele>99.17</ele>
   </trkpt>
   <trkpt lat="48.679230000000004" lon="-2.9473000000000003">
    <ele>99.76</ele>
   </trkpt>
   <trkpt lat="48.67904000232438" lon="-2.9465749974553606">
    <ele>101.29</ele>
   </trkpt>
   <trkpt lat="48.678850000000004" lon="-2.94585">
    <ele>102.15</ele>
   </trkpt>
   <trkpt lat="48.678580000000004" lon="-2.94499">
    <ele>102.86</ele>
   </trkpt>
   <trkpt lat="48.678140000000006" lon="-2.94403">
    <ele>105.41</ele>
   </trkpt>
   <trkpt lat="48.67794000000001" lon="-2.9433200000000004">
    <ele>106.68</ele>
   </trkpt>
   <trkpt lat="48.67769000236472" lon="-2.942594996663339">
    <ele>107.43</ele>
   </trkpt>
   <trkpt lat="48.677440000000004" lon="-2.94187">
    <ele>107.46000000000001</ele>
   </trkpt>
   <trkpt lat="48.67732" lon="-2.94144">
    <ele>107.01</ele>
   </trkpt>
   <trkpt lat="48.67723" lon="-2.94076">
    <ele>105.79</ele>
   </trkpt>
   <trkpt lat="48.677150000000005" lon="-2.93988">
    <ele>104.34</ele>
   </trkpt>
   <trkpt lat="48.677040000000005" lon="-2.9393200000000004">
    <ele>103.88000000000001</ele>
   </trkpt>
   <trkpt lat="48.67672000411059" lon="-2.9383499939563587">
    <ele>101.29</ele>
   </trkpt>
   <trkpt lat="48.6764" lon="-2.93738">
    <ele>99.28</ele>
   </trkpt>
   <trkpt lat="48.676320000000004" lon="-2.93717">
    <ele>98.38000000000001</ele>
   </trkpt>
   <trkpt lat="48.676210000000005" lon="-2.93676">
    <ele>98.03</ele>
   </trkpt>
   <trkpt lat="48.676120000000004" lon="-2.93615">
    <ele>97.04</ele>
   </trkpt>
   <trkpt lat="48.67607" lon="-2.93595">
    <ele>96.89</ele>
   </trkpt>
   <trkpt lat="48.67584" lon="-2.93541">
    <ele>96.03</ele>
   </trkpt>
   <trkpt lat="48.67559000000001" lon="-2.935">
    <ele>95.59</ele>
   </trkpt>
   <trkpt lat="48.675360000000005" lon="-2.9347200000000004">
    <ele>95.58000000000001</ele>
   </trkpt>
   <trkpt lat="48.67531" lon="-2.93454">
    <ele>95.5</ele>
   </trkpt>
   <trkpt lat="48.67522" lon="-2.9344500000000004">
    <ele>95.36000000000001</ele>
   </trkpt>
   <trkpt lat="48.67517" lon="-2.9343800000000004">
    <ele>95.22000000000001</ele>
   </trkpt>
   <trkpt lat="48.67499" lon="-2.93425">
    <ele>94.69000000000001</ele>
   </trkpt>
   <trkpt lat="48.67459" lon="-2.93392">
    <ele>93.22000000000001</ele>
   </trkpt>
   <trkpt lat="48.67418000000001" lon="-2.93351">
    <ele>90.88</ele>
   </trkpt>
   <trkpt lat="48.67383" lon="-2.93305">
    <ele>89.44</ele>
   </trkpt>
   <trkpt lat="48.673460000000006" lon="-2.9325900000000003">
    <ele>85.28</ele>
   </trkpt>
   <trkpt lat="48.67336" lon="-2.93243">
    <ele>84.28</ele>
   </trkpt>
   <trkpt lat="48.673350000000006" lon="-2.9321800000000002">
    <ele>83.15</ele>
   </trkpt>
   <trkpt lat="48.67342000000001" lon="-2.93163">
    <ele>82.19000000000001</ele>
   </trkpt>
   <trkpt lat="48.6729450001332" lon="-2.931655000228824">
    <ele>81.48</ele>
   </trkpt>
   <trkpt lat="48.672470000000004" lon="-2.93168">
    <ele>81.21000000000001</ele>
   </trkpt>
   <trkpt lat="48.67208" lon="-2.93162">
    <ele>81.02000000000001</ele>
   </trkpt>
   <trkpt lat="48.671800000000005" lon="-2.93155">
    <ele>80.49000000000001</ele>
   </trkpt>
   <trkpt lat="48.671620000000004" lon="-2.93147">
    <ele>79.69000000000001</ele>
   </trkpt>
   <trkpt lat="48.67128" lon="-2.93128">
    <ele>78.12</ele>
   </trkpt>
   <trkpt lat="48.67107000000001" lon="-2.93114">
    <ele>77.23</ele>
   </trkpt>
   <trkpt lat="48.670770000000005" lon="-2.93087">
    <ele>76.29</ele>
   </trkpt>
   <trkpt lat="48.670480000000005" lon="-2.93053">
    <ele>74.64000000000001</ele>
   </trkpt>
   <trkpt lat="48.670280000000005" lon="-2.93026">
    <ele>73.96000000000001</ele>
   </trkpt>
   <trkpt lat="48.66986000000001" lon="-2.9308">
    <ele>70.49000000000001</ele>
   </trkpt>
   <trkpt lat="48.66968000000001" lon="-2.9309000000000003">
    <ele>69.63000000000001</ele>
   </trkpt>
   <trkpt lat="48.66928" lon="-2.931">
    <ele>67.99000000000001</ele>
   </trkpt>
   <trkpt lat="48.66913" lon="-2.93101">
    <ele>67.83</ele>
   </trkpt>
   <trkpt lat="48.66877" lon="-2.9311100000000003">
    <ele>68.04</ele>
   </trkpt>
   <trkpt lat="48.66839" lon="-2.93127">
    <ele>68.13000000000001</ele>
   </trkpt>
   <trkpt lat="48.667880000000004" lon="-2.9314000000000004">
    <ele>68.87</ele>
   </trkpt>
   <trkpt lat="48.667440000000006" lon="-2.93154">
    <ele>70.23</ele>
   </trkpt>
   <trkpt lat="48.66734" lon="-2.93155">
    <ele>70.47</ele>
   </trkpt>
   <trkpt lat="48.66718" lon="-2.93154">
    <ele>70.69</ele>
   </trkpt>
   <trkpt lat="48.66687" lon="-2.93148">
    <ele>70.61</ele>
   </trkpt>
   <trkpt lat="48.666500000000006" lon="-2.93134">
    <ele>69.74000000000001</ele>
   </trkpt>
   <trkpt lat="48.66628000000001" lon="-2.93129">
    <ele>69.59</ele>
   </trkpt>
   <trkpt lat="48.66578499996643" lon="-2.9312149992545637">
    <ele>68.43</ele>
   </trkpt>
   <trkpt lat="48.665290000000006" lon="-2.93114">
    <ele>65.72</ele>
   </trkpt>
   <trkpt lat="48.66514" lon="-2.93115">
    <ele>64.93</ele>
   </trkpt>
   <trkpt lat="48.664910000000006" lon="-2.93135">
    <ele>64.21000000000001</ele>
   </trkpt>
   <trkpt lat="48.664440000000006" lon="-2.93204">
    <ele>62.160000000000004</ele>
   </trkpt>
   <trkpt lat="48.664350000000006" lon="-2.93215">
    <ele>62.28</ele>
   </trkpt>
   <trkpt lat="48.664010000000005" lon="-2.9324700000000004">
    <ele>63.37000000000001</ele>
   </trkpt>
   <trkpt lat="48.66344" lon="-2.93297">
    <ele>64.07000000000001</ele>
   </trkpt>
   <trkpt lat="48.66322" lon="-2.9330700000000003">
    <ele>65.5</ele>
   </trkpt>
   <trkpt lat="48.663070000000005" lon="-2.9331">
    <ele>66.08</ele>
   </trkpt>
   <trkpt lat="48.662960000000005" lon="-2.9331">
    <ele>67.65</ele>
   </trkpt>
   <trkpt lat="48.6627" lon="-2.9330600000000002">
    <ele>69.41</ele>
   </trkpt>
   <trkpt lat="48.66257" lon="-2.9330700000000003">
    <ele>69.97</ele>
   </trkpt>
   <trkpt lat="48.6621" lon="-2.9332700000000003">
    <ele>72.17000000000002</ele>
   </trkpt>
   <trkpt lat="48.66127" lon="-2.93344">
    <ele>76.99</ele>
   </trkpt>
   <trkpt lat="48.660720000000005" lon="-2.93358">
    <ele>79.23</ele>
   </trkpt>
   <trkpt lat="48.66053" lon="-2.93358">
    <ele>79.63000000000001</ele>
   </trkpt>
   <trkpt lat="48.660160000000005" lon="-2.93353">
    <ele>80.39</ele>
   </trkpt>
   <trkpt lat="48.660000000000004" lon="-2.9335700000000005">
    <ele>80.92</ele>
   </trkpt>
   <trkpt lat="48.659710000000004" lon="-2.93364">
    <ele>81.33000000000001</ele>
   </trkpt>
   <trkpt lat="48.65923" lon="-2.93385">
    <ele>83.30000000000001</ele>
   </trkpt>
   <trkpt lat="48.65894" lon="-2.9339100000000005">
    <ele>83.45</ele>
   </trkpt>
   <trkpt lat="48.65833999996034" lon="-2.933899999761274">
    <ele>83.12</ele>
   </trkpt>
   <trkpt lat="48.657739999919784" lon="-2.9338899997606025">
    <ele>83.80000000000001</ele>
   </trkpt>
   <trkpt lat="48.657140000000005" lon="-2.9338800000000003">
    <ele>84.29</ele>
   </trkpt>
   <trkpt lat="48.65663499999584" lon="-2.933824999447165">
    <ele>85.14</ele>
   </trkpt>
   <trkpt lat="48.656130000000005" lon="-2.9337700000000004">
    <ele>85.67</ele>
   </trkpt>
   <trkpt lat="48.65619" lon="-2.93305">
    <ele>84.58</ele>
   </trkpt>
   <trkpt lat="48.65625000000001" lon="-2.93269">
    <ele>84.25</ele>
   </trkpt>
   <trkpt lat="48.656270000000006" lon="-2.93222">
    <ele>83.84</ele>
   </trkpt>
   <trkpt lat="48.65628" lon="-2.9312">
    <ele>81.46000000000001</ele>
   </trkpt>
   <trkpt lat="48.65634000000001" lon="-2.9308400000000003">
    <ele>80.15</ele>
   </trkpt>
   <trkpt lat="48.656400000000005" lon="-2.93075">
    <ele>79.67</ele>
   </trkpt>
   <trkpt lat="48.656490000000005" lon="-2.93048">
    <ele>79.14</ele>
   </trkpt>
   <trkpt lat="48.656510000000004" lon="-2.93032">
    <ele>79.06</ele>
   </trkpt>
   <trkpt lat="48.6565" lon="-2.9297600000000004">
    <ele>79.32</ele>
   </trkpt>
   <trkpt lat="48.65639" lon="-2.92876">
    <ele>81.84</ele>
   </trkpt>
   <trkpt lat="48.656330000000004" lon="-2.92844">
    <ele>82.43</ele>
   </trkpt>
   <trkpt lat="48.65612" lon="-2.92768">
    <ele>84.06</ele>
   </trkpt>
   <trkpt lat="48.65605" lon="-2.9272">
    <ele>84.41000000000001</ele>
   </trkpt>
   <trkpt lat="48.656040000000004" lon="-2.92682">
    <ele>84.4</ele>
   </trkpt>
   <trkpt lat="48.656060000000004" lon="-2.9263800000000004">
    <ele>84.4</ele>
   </trkpt>
   <trkpt lat="48.65616500234452" lon="-2.9256400017202577">
    <ele>84.47</ele>
   </trkpt>
   <trkpt lat="48.656270000000006" lon="-2.9249">
    <ele>84.35000000000001</ele>
   </trkpt>
   <trkpt lat="48.65630500280131" lon="-2.9240950006335584">
    <ele>83.80000000000001</ele>
   </trkpt>
   <trkpt lat="48.65634000000001" lon="-2.92329">
    <ele>84.67</ele>
   </trkpt>
   <trkpt lat="48.65641" lon="-2.92255">
    <ele>85.08</ele>
   </trkpt>
   <trkpt lat="48.65639" lon="-2.9214700000000002">
    <ele>85.72</ele>
   </trkpt>
   <trkpt lat="48.656400000000005" lon="-2.92091">
    <ele>85.61</ele>
   </trkpt>
   <trkpt lat="48.65635" lon="-2.9205200000000002">
    <ele>85.64</ele>
   </trkpt>
   <trkpt lat="48.65616000000001" lon="-2.9198500000000003">
    <ele>85.54</ele>
   </trkpt>
   <trkpt lat="48.65616000000001" lon="-2.91943">
    <ele>84.44</ele>
   </trkpt>
   <trkpt lat="48.656130000000005" lon="-2.9192">
    <ele>84.22</ele>
   </trkpt>
   <trkpt lat="48.65607000000001" lon="-2.91893">
    <ele>83.94</ele>
   </trkpt>
   <trkpt lat="48.65596000000001" lon="-2.91861">
    <ele>84.11</ele>
   </trkpt>
   <trkpt lat="48.655950000000004" lon="-2.91853">
    <ele>84.11</ele>
   </trkpt>
   <trkpt lat="48.656000000000006" lon="-2.91806">
    <ele>84.03</ele>
   </trkpt>
   <trkpt lat="48.65637" lon="-2.91765">
    <ele>83.24000000000001</ele>
   </trkpt>
   <trkpt lat="48.65664" lon="-2.9172700000000003">
    <ele>81.91000000000001</ele>
   </trkpt>
   <trkpt lat="48.656760000000006" lon="-2.9170700000000003">
    <ele>81.37</ele>
   </trkpt>
   <trkpt lat="48.656850000000006" lon="-2.91683">
    <ele>81.17</ele>
   </trkpt>
   <trkpt lat="48.65699000000001" lon="-2.91624">
    <ele>80.08000000000001</ele>
   </trkpt>
   <trkpt lat="48.657130004365236" lon="-2.9152350028339016">
    <ele>78.19000000000001</ele>
   </trkpt>
   <trkpt lat="48.657270000000004" lon="-2.9142300000000003">
    <ele>77.43</ele>
   </trkpt>
   <trkpt lat="48.65711" lon="-2.9139100000000004">
    <ele>77.6</ele>
   </trkpt>
   <trkpt lat="48.65697" lon="-2.91372">
    <ele>77.88000000000001</ele>
   </trkpt>
   <trkpt lat="48.656850000000006" lon="-2.9136100000000003">
    <ele>77.97000000000001</ele>
   </trkpt>
   <trkpt lat="48.65637" lon="-2.91326">
    <ele>78.17</ele>
   </trkpt>
   <trkpt lat="48.65576" lon="-2.9131">
    <ele>78.98</ele>
   </trkpt>
   <trkpt lat="48.65543" lon="-2.9129400000000003">
    <ele>79.46000000000001</ele>
   </trkpt>
   <trkpt lat="48.65525" lon="-2.91279">
    <ele>79.94000000000001</ele>
   </trkpt>
   <trkpt lat="48.65487" lon="-2.91243">
    <ele>80.91000000000001</ele>
   </trkpt>
   <trkpt lat="48.65467" lon="-2.91236">
    <ele>81.31</ele>
   </trkpt>
   <trkpt lat="48.654180000000004" lon="-2.91229">
    <ele>81.42</ele>
   </trkpt>
   <trkpt lat="48.654" lon="-2.91215">
    <ele>81.42</ele>
   </trkpt>
   <trkpt lat="48.653380000000006" lon="-2.91141">
    <ele>81.04</ele>
   </trkpt>
   <trkpt lat="48.65307000000001" lon="-2.91108">
    <ele>80.73</ele>
   </trkpt>
   <trkpt lat="48.65252" lon="-2.91069">
    <ele>80.89</ele>
   </trkpt>
   <trkpt lat="48.65195000000001" lon="-2.91012">
    <ele>82.66000000000001</ele>
   </trkpt>
   <trkpt lat="48.65173" lon="-2.90985">
    <ele>83.14</ele>
   </trkpt>
   <trkpt lat="48.65157000000001" lon="-2.90959">
    <ele>84.4</ele>
   </trkpt>
   <trkpt lat="48.65146000000001" lon="-2.9093700000000005">
    <ele>85.23</ele>
   </trkpt>
   <trkpt lat="48.65129" lon="-2.90849">
    <ele>86.64</ele>
   </trkpt>
   <trkpt lat="48.651250000000005" lon="-2.90837">
    <ele>86.64</ele>
   </trkpt>
   <trkpt lat="48.65115" lon="-2.90817">
    <ele>86.59</ele>
   </trkpt>
   <trkpt lat="48.65079500132679" lon="-2.9076349963660264">
    <ele>86.95000000000002</ele>
   </trkpt>
   <trkpt lat="48.65044" lon="-2.9071000000000002">
    <ele>87.9</ele>
   </trkpt>
   <trkpt lat="48.650040000000004" lon="-2.9064200000000002">
    <ele>89.26</ele>
   </trkpt>
   <trkpt lat="48.6499" lon="-2.90626">
    <ele>89.48</ele>
   </trkpt>
   <trkpt lat="48.649460000000005" lon="-2.9059500000000003">
    <ele>89.82000000000001</ele>
   </trkpt>
   <trkpt lat="48.64922000000001" lon="-2.9057500000000003">
    <ele>90.41</ele>
   </trkpt>
   <trkpt lat="48.648920000000004" lon="-2.90558">
    <ele>90.7</ele>
   </trkpt>
   <trkpt lat="48.64862" lon="-2.90531">
    <ele>91.71000000000001</ele>
   </trkpt>
   <trkpt lat="48.64835" lon="-2.90504">
    <ele>93.68</ele>
   </trkpt>
   <trkpt lat="48.647890000000004" lon="-2.9043900000000002">
    <ele>96.10000000000001</ele>
   </trkpt>
   <trkpt lat="48.64739500271863" lon="-2.9035899920644495">
    <ele>97.59</ele>
   </trkpt>
   <trkpt lat="48.6469" lon="-2.9027900000000004">
    <ele>96.81</ele>
   </trkpt>
   <trkpt lat="48.64641000537001" lon="-2.901679989299736">
    <ele>95.49000000000001</ele>
   </trkpt>
   <trkpt lat="48.645920000000004" lon="-2.90057">
    <ele>94.64</ele>
   </trkpt>
   <trkpt lat="48.64566000000001" lon="-2.89977">
    <ele>94.00000000000001</ele>
   </trkpt>
   <trkpt lat="48.645440002588266" lon="-2.8989899964381545">
    <ele>92.6</ele>
   </trkpt>
   <trkpt lat="48.64522" lon="-2.89821">
    <ele>92.38</ele>
   </trkpt>
   <trkpt lat="48.64506" lon="-2.89785">
    <ele>92.18</ele>
   </trkpt>
   <trkpt lat="48.64486" lon="-2.8976">
    <ele>92.15</ele>
   </trkpt>
   <trkpt lat="48.64470000000001" lon="-2.89751">
    <ele>92.26</ele>
   </trkpt>
   <trkpt lat="48.64428" lon="-2.89731">
    <ele>93.08000000000001</ele>
   </trkpt>
   <trkpt lat="48.64392" lon="-2.89706">
    <ele>94.22000000000001</ele>
   </trkpt>
   <trkpt lat="48.64359" lon="-2.89677">
    <ele>94.78</ele>
   </trkpt>
   <trkpt lat="48.64332" lon="-2.8964700000000003">
    <ele>93.78</ele>
   </trkpt>
   <trkpt lat="48.643170000000005" lon="-2.8960800000000004">
    <ele>93.17</ele>
   </trkpt>
   <trkpt lat="48.64294500285232" lon="-2.895269996432106">
    <ele>90.9</ele>
   </trkpt>
   <trkpt lat="48.642720000000004" lon="-2.89446">
    <ele>88.7</ele>
   </trkpt>
   <trkpt lat="48.64233" lon="-2.89345">
    <ele>86.3</ele>
   </trkpt>
   <trkpt lat="48.642160000000004" lon="-2.89264">
    <ele>84.57000000000001</ele>
   </trkpt>
   <trkpt lat="48.64193" lon="-2.89184">
    <ele>83.72</ele>
   </trkpt>
   <trkpt lat="48.641740000000006" lon="-2.8914700000000004">
    <ele>83.42</ele>
   </trkpt>
   <trkpt lat="48.64161000000001" lon="-2.89141">
    <ele>83.66000000000001</ele>
   </trkpt>
   <trkpt lat="48.64157" lon="-2.89142">
    <ele>83.66000000000001</ele>
   </trkpt>
   <trkpt lat="48.641490000000005" lon="-2.89137">
    <ele>83.49000000000001</ele>
   </trkpt>
   <trkpt lat="48.64144" lon="-2.89121">
    <ele>83.23</ele>
   </trkpt>
   <trkpt lat="48.64144" lon="-2.89122">
    <ele>83.23</ele>
   </trkpt>
   <trkpt lat="48.641450000000006" lon="-2.89114">
    <ele>83.06</ele>
   </trkpt>
   <trkpt lat="48.641510000000004" lon="-2.8910400000000003">
    <ele>82.73</ele>
   </trkpt>
   <trkpt lat="48.64172000000001" lon="-2.8909700000000003">
    <ele>82.63000000000001</ele>
   </trkpt>
   <trkpt lat="48.64199000588429" lon="-2.890146675431225">
    <ele>81.65</ele>
   </trkpt>
   <trkpt lat="48.64226000590079" lon="-2.8893233420476943">
    <ele>81.0</ele>
   </trkpt>
   <trkpt lat="48.64253" lon="-2.8885">
    <ele>80.61</ele>
   </trkpt>
   <trkpt lat="48.64276" lon="-2.88749">
    <ele>80.15</ele>
   </trkpt>
   <trkpt lat="48.642900000000004" lon="-2.88648">
    <ele>80.55000000000001</ele>
   </trkpt>
   <trkpt lat="48.64296" lon="-2.88592">
    <ele>81.34</ele>
   </trkpt>
   <trkpt lat="48.64300667481297" lon="-2.88495000175955">
    <ele>81.81</ele>
   </trkpt>
   <trkpt lat="48.643053341481355" lon="-2.883980001723954">
    <ele>81.63000000000001</ele>
   </trkpt>
   <trkpt lat="48.643100000000004" lon="-2.88301">
    <ele>80.91000000000001</ele>
   </trkpt>
   <trkpt lat="48.643170000000005" lon="-2.882">
    <ele>80.15</ele>
   </trkpt>
   <trkpt lat="48.643280000000004" lon="-2.88113">
    <ele>79.56</ele>
   </trkpt>
   <trkpt lat="48.64340000000001" lon="-2.8805">
    <ele>78.57</ele>
   </trkpt>
   <trkpt lat="48.64359334078318" lon="-2.879573340357575">
    <ele>76.86000000000001</ele>
   </trkpt>
   <trkpt lat="48.64378667413326" lon="-2.87864667361071">
    <ele>74.09</ele>
   </trkpt>
   <trkpt lat="48.643980000000006" lon="-2.87772">
    <ele>72.85000000000001</ele>
   </trkpt>
   <trkpt lat="48.644090000000006" lon="-2.8772">
    <ele>72.77</ele>
   </trkpt>
   <trkpt lat="48.64417" lon="-2.87666">
    <ele>72.0</ele>
   </trkpt>
   <trkpt lat="48.64428" lon="-2.87576">
    <ele>70.71000000000001</ele>
   </trkpt>
   <trkpt lat="48.644360007338456" lon="-2.874840002781779">
    <ele>68.77000000000001</ele>
   </trkpt>
   <trkpt lat="48.64444000735037" lon="-2.873920002644776">
    <ele>67.22</ele>
   </trkpt>
   <trkpt lat="48.64452000000001" lon="-2.873">
    <ele>66.34</ele>
   </trkpt>
   <trkpt lat="48.64457" lon="-2.8725400000000003">
    <ele>65.91000000000001</ele>
   </trkpt>
   <trkpt lat="48.64473602273343" lon="-2.871394015108106">
    <ele>64.41000000000001</ele>
   </trkpt>
   <trkpt lat="48.644902034098884" lon="-2.870248022671489">
    <ele>63.38</ele>
   </trkpt>
   <trkpt lat="48.64506803409621" lon="-2.8691020226905724">
    <ele>62.86</ele>
   </trkpt>
   <trkpt lat="48.645234022725255" lon="-2.867956015165778">
    <ele>61.78000000000001</ele>
   </trkpt>
   <trkpt lat="48.6454" lon="-2.86681">
    <ele>61.69</ele>
   </trkpt>
   <trkpt lat="48.645540009719355" lon="-2.8657500059351806">
    <ele>61.43000000000001</ele>
   </trkpt>
   <trkpt lat="48.64568000971279" lon="-2.864690005985038">
    <ele>62.690000000000005</ele>
   </trkpt>
   <trkpt lat="48.64582" lon="-2.86363">
    <ele>65.37</ele>
   </trkpt>
   <trkpt lat="48.645860000000006" lon="-2.86303">
    <ele>66.88000000000001</ele>
   </trkpt>
   <trkpt lat="48.64585" lon="-2.86192">
    <ele>67.13000000000001</ele>
   </trkpt>
   <trkpt lat="48.64583500350721" lon="-2.86101999982209">
    <ele>65.80000000000001</ele>
   </trkpt>
   <trkpt lat="48.64582" lon="-2.86012">
    <ele>63.81</ele>
   </trkpt>
   <trkpt lat="48.64569" lon="-2.85929">
    <ele>63.32</ele>
   </trkpt>
   <trkpt lat="48.64548500424374" lon="-2.858299995984566">
    <ele>62.32000000000001</ele>
   </trkpt>
   <trkpt lat="48.64528000000001" lon="-2.85731">
    <ele>61.71000000000001</ele>
   </trkpt>
   <trkpt lat="48.645160000000004" lon="-2.8563">
    <ele>60.940000000000005</ele>
   </trkpt>
   <trkpt lat="48.645092517245075" lon="-2.8551474953514244">
    <ele>58.620000000000005</ele>
   </trkpt>
   <trkpt lat="48.645025022992556" lon="-2.853994993787369">
    <ele>55.93000000000001</ele>
   </trkpt>
   <trkpt lat="48.64495751724251" lon="-2.852842495308343">
    <ele>51.660000000000004</ele>
   </trkpt>
   <trkpt lat="48.644890000000004" lon="-2.85169">
    <ele>46.86000000000001</ele>
   </trkpt>
   <trkpt lat="48.64490000000001" lon="-2.85135">
    <ele>46.12</ele>
   </trkpt>
   <trkpt lat="48.644980000000004" lon="-2.85087">
    <ele>45.22</ele>
   </trkpt>
   <trkpt lat="48.645" lon="-2.8505700000000003">
    <ele>44.67</ele>
   </trkpt>
   <trkpt lat="48.645360000000004" lon="-2.8503900000000004">
    <ele>45.07000000000001</ele>
   </trkpt>
   <trkpt lat="48.64555000000001" lon="-2.85022">
    <ele>44.94</ele>
   </trkpt>
   <trkpt lat="48.64574" lon="-2.84999">
    <ele>44.480000000000004</ele>
   </trkpt>
   <trkpt lat="48.64589" lon="-2.84973">
    <ele>43.93</ele>
   </trkpt>
   <trkpt lat="48.646010000000004" lon="-2.8494200000000003">
    <ele>43.71000000000001</ele>
   </trkpt>
   <trkpt lat="48.64609" lon="-2.8491400000000002">
    <ele>43.39</ele>
   </trkpt>
   <trkpt lat="48.646240000000006" lon="-2.8479">
    <ele>42.93</ele>
   </trkpt>
   <trkpt lat="48.646280000000004" lon="-2.8477">
    <ele>42.93</ele>
   </trkpt>
   <trkpt lat="48.64645" lon="-2.84724">
    <ele>42.830000000000005</ele>
   </trkpt>
   <trkpt lat="48.6467" lon="-2.84674">
    <ele>42.760000000000005</ele>
   </trkpt>
   <trkpt lat="48.646840000000005" lon="-2.84649">
    <ele>42.440000000000005</ele>
   </trkpt>
   <trkpt lat="48.64746" lon="-2.84572">
    <ele>42.260000000000005</ele>
   </trkpt>
   <trkpt lat="48.647580000000005" lon="-2.8455100000000004">
    <ele>42.230000000000004</ele>
   </trkpt>
   <trkpt lat="48.647830000000006" lon="-2.84491">
    <ele>41.7</ele>
   </trkpt>
   <trkpt lat="48.64793" lon="-2.8444700000000003">
    <ele>39.49</ele>
   </trkpt>
   <trkpt lat="48.64795" lon="-2.84419">
    <ele>37.95</ele>
   </trkpt>
   <trkpt lat="48.647940000000006" lon="-2.84364">
    <ele>35.69</ele>
   </trkpt>
   <trkpt lat="48.64790000000001" lon="-2.8425700000000003">
    <ele>33.18</ele>
   </trkpt>
   <trkpt lat="48.647960000000005" lon="-2.8416">
    <ele>32.040000000000006</ele>
   </trkpt>
   <trkpt lat="48.64808000000001" lon="-2.8409400000000002">
    <ele>31.740000000000002</ele>
   </trkpt>
   <trkpt lat="48.64829" lon="-2.84003">
    <ele>31.44</ele>
   </trkpt>
   <trkpt lat="48.64833" lon="-2.8390000000000004">
    <ele>30.050000000000004</ele>
   </trkpt>
   <trkpt lat="48.648270000000004" lon="-2.83901">
    <ele>30.050000000000004</ele>
   </trkpt>
   <trkpt lat="48.64822" lon="-2.83894">
    <ele>30.400000000000002</ele>
   </trkpt>
   <trkpt lat="48.64819000000001" lon="-2.83881">
    <ele>30.400000000000002</ele>
   </trkpt>
   <trkpt lat="48.64799000000001" lon="-2.8387100000000003">
    <ele>30.560000000000002</ele>
   </trkpt>
   <trkpt lat="48.64791" lon="-2.83875">
    <ele>30.97</ele>
   </trkpt>
   <trkpt lat="48.64712" lon="-2.83856">
    <ele>33.81</ele>
   </trkpt>
   <trkpt lat="48.64653500013746" lon="-2.838379997911122">
    <ele>36.1</ele>
   </trkpt>
   <trkpt lat="48.645950000000006" lon="-2.8382">
    <ele>37.53</ele>
   </trkpt>
   <trkpt lat="48.64556" lon="-2.8382">
    <ele>38.46</ele>
   </trkpt>
   <trkpt lat="48.64546000000001" lon="-2.8383200000000004">
    <ele>38.85</ele>
   </trkpt>
   <trkpt lat="48.645520000000005" lon="-2.8381900000000004">
    <ele>38.81</ele>
   </trkpt>
   <trkpt lat="48.645500000000006" lon="-2.83807">
    <ele>38.81</ele>
   </trkpt>
   <trkpt lat="48.645450000000004" lon="-2.83806">
    <ele>38.85</ele>
   </trkpt>
   <trkpt lat="48.64538" lon="-2.83808">
    <ele>38.85</ele>
   </trkpt>
   <trkpt lat="48.64538" lon="-2.8380900000000002">
    <ele>38.85</ele>
   </trkpt>
   <trkpt lat="48.64533" lon="-2.83801">
    <ele>38.85</ele>
   </trkpt>
   <trkpt lat="48.64486" lon="-2.83786">
    <ele>38.43000000000001</ele>
   </trkpt>
   <trkpt lat="48.644780000000004" lon="-2.83786">
    <ele>38.32</ele>
   </trkpt>
   <trkpt lat="48.644490000000005" lon="-2.83774">
    <ele>37.69</ele>
   </trkpt>
   <trkpt lat="48.644200000000005" lon="-2.83775">
    <ele>37.69</ele>
   </trkpt>
   <trkpt lat="48.64416000000001" lon="-2.8377800000000004">
    <ele>37.69</ele>
   </trkpt>
   <trkpt lat="48.644110000000005" lon="-2.83754">
    <ele>38.21</ele>
   </trkpt>
   <trkpt lat="48.643660000139754" lon="-2.837344998249399">
    <ele>38.290000000000006</ele>
   </trkpt>
   <trkpt lat="48.64321" lon="-2.8371500000000003">
    <ele>38.25000000000001</ele>
   </trkpt>
   <trkpt lat="48.64312" lon="-2.83718">
    <ele>38.25000000000001</ele>
   </trkpt>
   <trkpt lat="48.642920000000004" lon="-2.8373500000000003">
    <ele>38.11000000000001</ele>
   </trkpt>
   <trkpt lat="48.64285" lon="-2.83745">
    <ele>37.73</ele>
   </trkpt>
   <trkpt lat="48.642790000000005" lon="-2.83767">
    <ele>37.68000000000001</ele>
   </trkpt>
   <trkpt lat="48.64276" lon="-2.8377100000000004">
    <ele>37.59</ele>
   </trkpt>
   <trkpt lat="48.642680000000006" lon="-2.83768">
    <ele>37.59</ele>
   </trkpt>
   <trkpt lat="48.642720000000004" lon="-2.83745">
    <ele>37.89</ele>
   </trkpt>
   <trkpt lat="48.64271" lon="-2.8372800000000002">
    <ele>38.13</ele>
   </trkpt>
   <trkpt lat="48.64256" lon="-2.8369700000000004">
    <ele>38.12</ele>
   </trkpt>
   <trkpt lat="48.642520000000005" lon="-2.83691">
    <ele>38.12</ele>
   </trkpt>
   <trkpt lat="48.64246000000001" lon="-2.83686">
    <ele>38.02</ele>
   </trkpt>
   <trkpt lat="48.64161000163308" lon="-2.8365074821873226">
    <ele>37.7</ele>
   </trkpt>
   <trkpt lat="48.64076000219048" lon="-2.8361549762556892">
    <ele>35.04</ele>
   </trkpt>
   <trkpt lat="48.639910001672305" lon="-2.8358024822043584">
    <ele>29.51</ele>
   </trkpt>
   <trkpt lat="48.63906" lon="-2.8354500000000002">
    <ele>23.360000000000003</ele>
   </trkpt>
   <trkpt lat="48.639030000000005" lon="-2.83544">
    <ele>23.360000000000003</ele>
   </trkpt>
   <trkpt lat="48.638980000000004" lon="-2.8354700000000004">
    <ele>23.14</ele>
   </trkpt>
   <trkpt lat="48.63886" lon="-2.8354100000000004">
    <ele>22.770000000000003</ele>
   </trkpt>
   <trkpt lat="48.638850000000005" lon="-2.83536">
    <ele>22.67</ele>
   </trkpt>
   <trkpt lat="48.638560000000005" lon="-2.83524">
    <ele>20.400000000000002</ele>
   </trkpt>
   <trkpt lat="48.63832000000001" lon="-2.83522">
    <ele>18.73</ele>
   </trkpt>
   <trkpt lat="48.637800000000006" lon="-2.83523">
    <ele>16.650000000000002</ele>
   </trkpt>
   <trkpt lat="48.63778000000001" lon="-2.8352000000000004">
    <ele>16.650000000000002</ele>
   </trkpt>
   <trkpt lat="48.637660000000004" lon="-2.83523">
    <ele>16.439999999999998</ele>
   </trkpt>
   <trkpt lat="48.63747000000001" lon="-2.83522">
    <ele>16.27</ele>
   </trkpt>
   <trkpt lat="48.6373" lon="-2.8351400000000004">
    <ele>16.32</ele>
   </trkpt>
   <trkpt lat="48.636810000000004" lon="-2.8346400000000003">
    <ele>18.72</ele>
   </trkpt>
   <trkpt lat="48.636540000000004" lon="-2.83429">
    <ele>20.28</ele>
   </trkpt>
   <trkpt lat="48.63646000000001" lon="-2.83415">
    <ele>20.28</ele>
   </trkpt>
   <trkpt lat="48.63631" lon="-2.83379">
    <ele>23.64</ele>
   </trkpt>
   <trkpt lat="48.63602" lon="-2.8329700000000004">
    <ele>26.930000000000003</ele>
   </trkpt>
   <trkpt lat="48.63595" lon="-2.83284">
    <ele>26.930000000000003</ele>
   </trkpt>
   <trkpt lat="48.63575" lon="-2.8326700000000002">
    <ele>28.110000000000003</ele>
   </trkpt>
   <trkpt lat="48.635260000260736" lon="-2.832419997566883">
    <ele>29.450000000000003</ele>
   </trkpt>
   <trkpt lat="48.63477" lon="-2.83217">
    <ele>33.78</ele>
   </trkpt>
   <trkpt lat="48.63463" lon="-2.83212">
    <ele>33.78</ele>
   </trkpt>
   <trkpt lat="48.63438000000001" lon="-2.83216">
    <ele>35.300000000000004</ele>
   </trkpt>
   <trkpt lat="48.634240000000005" lon="-2.83226">
    <ele>36.89000000000001</ele>
   </trkpt>
   <trkpt lat="48.63374000296143" lon="-2.8328433448767854">
    <ele>39.470000000000006</ele>
   </trkpt>
   <trkpt lat="48.633240002977175" lon="-2.8334266781915955">
    <ele>42.71</ele>
   </trkpt>
   <trkpt lat="48.632740000000005" lon="-2.83401">
    <ele>44.190000000000005</ele>
   </trkpt>
   <trkpt lat="48.63261000000001" lon="-2.8341100000000004">
    <ele>44.190000000000005</ele>
   </trkpt>
   <trkpt lat="48.63250000000001" lon="-2.8337800000000004">
    <ele>43.800000000000004</ele>
   </trkpt>
   <trkpt lat="48.63250000000001" lon="-2.83366">
    <ele>43.08</ele>
   </trkpt>
   <trkpt lat="48.632600000000004" lon="-2.83332">
    <ele>42.04</ele>
   </trkpt>
   <trkpt lat="48.632690000000004" lon="-2.8331700000000004">
    <ele>40.92</ele>
   </trkpt>
   <trkpt lat="48.63304" lon="-2.83299">
    <ele>35.4</ele>
   </trkpt>
   <trkpt lat="48.63324" lon="-2.8327400000000003">
    <ele>33.74</ele>
   </trkpt>
   <trkpt lat="48.63333" lon="-2.83253">
    <ele>30.080000000000002</ele>
   </trkpt>
   <trkpt lat="48.63344000000001" lon="-2.83211">
    <ele>28.090000000000003</ele>
   </trkpt>
   <trkpt lat="48.63355000000001" lon="-2.83183">
    <ele>25.41</ele>
   </trkpt>
   <trkpt lat="48.63369" lon="-2.83162">
    <ele>24.6</ele>
   </trkpt>
   <trkpt lat="48.63410000054418" lon="-2.831280002726654">
    <ele>20.62</ele>
   </trkpt>
   <trkpt lat="48.634510000000006" lon="-2.83094">
    <ele>18.05</ele>
   </trkpt>
   <trkpt lat="48.63503" lon="-2.8304">
    <ele>14.280000000000001</ele>
   </trkpt>
   <trkpt lat="48.635385001458964" lon="-2.829835003852709">
    <ele>12.21</ele>
   </trkpt>
   <trkpt lat="48.635740000000006" lon="-2.82927">
    <ele>10.280000000000001</ele>
   </trkpt>
   <trkpt lat="48.63593" lon="-2.82892">
    <ele>9.690000000000001</ele>
   </trkpt>
   <trkpt lat="48.636030000000005" lon="-2.8287000000000004">
    <ele>9.500000000000002</ele>
   </trkpt>
   <trkpt lat="48.63615" lon="-2.8282800000000003">
    <ele>9.250000000000002</ele>
   </trkpt>
   <trkpt lat="48.63609" lon="-2.82819">
    <ele>9.250000000000002</ele>
   </trkpt>
   <trkpt lat="48.63608000000001" lon="-2.82803">
    <ele>9.520000000000001</ele>
   </trkpt>
   <trkpt lat="48.63613" lon="-2.8278700000000003">
    <ele>9.340000000000002</ele>
   </trkpt>
   <trkpt lat="48.636300000000006" lon="-2.82778">
    <ele>8.33</ele>
   </trkpt>
   <trkpt lat="48.636880000000005" lon="-2.8281600000000005">
    <ele>8.57</ele>
   </trkpt>
   <trkpt lat="48.63696" lon="-2.8281500000000004">
    <ele>8.96</ele>
   </trkpt>
   <trkpt lat="48.63714" lon="-2.82796">
    <ele>10.85</ele>
   </trkpt>
   <trkpt lat="48.63739" lon="-2.82722">
    <ele>14.190000000000001</ele>
   </trkpt>
  </trkseg>
 </trk>
</gpx>
